{"type":"FeatureCollection","features":[{"type":"Feature","properties":{"name":"CQ58","type":"Signals","notes":"","section":"Cowlairs","equipment_number":[{"number":"18262925","label":"AWS YE"},{"number":"18262926","label":"AWS YS"},{"number":"18262892","label":"Signal"}]},"geometry":{"type":"Point","coordinates":[-4.2478592,55.8679747]}},{"type":"Feature","properties":{"name":"CQ57","type":"Signals","notes":"","section":"Cowlairs","equipment_number":[{"number":"18262932","label":"AWS"},{"number":"18262895","label":"Signal"},{"number":"18262924","label":"TPWS"}]},"geometry":{"type":"Point","coordinates":[-4.2477573,55.867956]}},{"type":"Feature","properties":{"name":"CQ249","type":"Signals","notes":"","section":"Cowlairs","equipment_number":[{"number":"18262931","label":"AWS"},{"number":"18262894","label":"Signal"},{"number":"18262923","label":"TPWS"}]},"geometry":{"type":"Point","coordinates":[-4.2478766,55.8679408]}},{"type":"Feature","properties":{"name":"CQ57","type":"Signals","notes":"","section":"Cowlairs","equipment_number":[{"number":"18262932","label":"AWS"},{"number":"18262895","label":"Signal"},{"number":"18262924","label":"TPWS"}]},"geometry":{"type":"Point","coordinates":[-4.247776,55.867925]}},{"type":"Feature","properties":{"name":"CQ251","type":"Signals","notes":"","section":"Cowlairs","equipment_number":[{"number":"18262929","label":"AWS"},{"number":"18262890","label":"RTI"},{"number":"18262888","label":"RTI"},{"number":"18262886","label":"Position Light"},{"number":"18262884","label":"Signal"},{"number":"18262921","label":"TPWS"}]},"geometry":{"type":"Point","coordinates":[-4.249012,55.8663579]}},{"type":"Feature","properties":{"name":"CQ59","type":"Signals","notes":"","section":"Cowlairs","equipment_number":[{"number":"18262930","label":"AWS"},{"number":"18262891","label":"RTI"},{"number":"18262889","label":"RTI"},{"number":"18262887","label":"Position Light"},{"number":"18262885","label":"Signal"},{"number":"18262922","label":"TPWS"}]},"geometry":{"type":"Point","coordinates":[-4.2488833,55.8663382]}},{"type":"Feature","properties":{"name":"CQ81","type":"Signals","notes":"","section":"Cowlairs","equipment_number":[{"number":"18262851","label":"Stencil"},{"number":"18262877","label":"RTI"},{"number":"18262870","label":"Signal"},{"number":"18262907","label":"TPWS TS"},{"number":"18262908","label":"TPWS TS"}]},"geometry":{"type":"Point","coordinates":[-4.2509542,55.8637795]}},{"type":"Feature","properties":{"name":"CQ82","type":"Signals","notes":"","section":"Cowlairs","equipment_number":[{"number":"18262852","label":"Stencil"},{"number":"18262853","label":"Stencil"},{"number":"18262878","label":"RTI"},{"number":"18262871","label":"Signal"},{"number":"18262909","label":"TPWS TS"},{"number":"18262910","label":"TPWS TS"}]},"geometry":{"type":"Point","coordinates":[-4.2508764,55.863772]}},{"type":"Feature","properties":{"name":"CQ85","type":"Signals","notes":"","section":"Cowlairs","equipment_number":[{"number":"18262860","label":"Stencil"},{"number":"18262861","label":"Stencil"},{"number":"18262862","label":"Stencil"},{"number":"18262881","label":"RTI"},{"number":"18262874","label":"Signal"},{"number":"18262915","label":"TPWS TS"},{"number":"18262916","label":"TPWS TS"}]},"geometry":{"type":"Point","coordinates":[-4.2506135,55.8637358]}},{"type":"Feature","properties":{"name":"CQ86","type":"Signals","notes":"","section":"Cowlairs","equipment_number":[{"number":"18262863","label":"Stencil"},{"number":"18262864","label":"Stencil"},{"number":"18262882","label":"RTI"},{"number":"18262875","label":"Signal"},{"number":"18262917","label":"TPWS TS"},{"number":"18262918","label":"TPWS TS"}]},"geometry":{"type":"Point","coordinates":[-4.2505506,55.8637306]}},{"type":"Feature","properties":{"name":"CQ87","type":"Signals","notes":"","section":"Cowlairs","equipment_number":[{"number":"18262865","label":"Stencil"},{"number":"18262866","label":"Stencil"},{"number":"18262867","label":"Stencil"},{"number":"18262883","label":"RTI"},{"number":"18262876","label":"Signal"},{"number":"18262919","label":"TPWS TS"},{"number":"18262920","label":"TPWS TS"}]},"geometry":{"type":"Point","coordinates":[-4.2503454,55.8639977]}},{"type":"Feature","properties":{"name":"CQ83","type":"Signals","notes":"","section":"Cowlairs","equipment_number":[{"number":"18262854","label":"Stencil"},{"number":"18262855","label":"Stencil"},{"number":"18262856","label":"Stencil"},{"number":"1370056","label":"SPTs"},{"number":"18262879","label":"RTI"},{"number":"18262872","label":"Signal"},{"number":"18262911","label":"TPWS TS"},{"number":"18262912","label":"TPWS TS"}]},"geometry":{"type":"Point","coordinates":[-4.2506444,55.8639023]}},{"type":"Feature","properties":{"name":"CQ84","type":"Signals","notes":"","section":"Cowlairs","equipment_number":[{"number":"18262857","label":"Stencil"},{"number":"18262858","label":"Stencil"},{"number":"18262859","label":"Stencil"},{"number":"18262880","label":"RTI"},{"number":"18262873","label":"Signal"},{"number":"18262913","label":"TPWS TS"},{"number":"18262914","label":"TPWS TS"}]},"geometry":{"type":"Point","coordinates":[-4.2505935,55.863897]}},{"type":"Feature","properties":{"name":"CQ247","type":"Signals","notes":"","section":"Cowlairs","equipment_number":[{"number":"1468899","label":"AWS"},{"number":"1295673","label":"SPTs"},{"number":"1295665","label":"SPTs"},{"number":"18262898","label":"Signal"}]},"geometry":{"type":"Point","coordinates":[-4.243902,55.8738859]}},{"type":"Feature","properties":{"name":"CQ55","type":"Signals","notes":"","section":"Cowlairs","equipment_number":[{"number":"1468906","label":"AWS"},{"number":"1295666","label":"SPTs"},{"number":"18262899","label":"Signal"},{"number":"1972801","label":"TPWS"}]},"geometry":{"type":"Point","coordinates":[-4.2437585,55.8738671]}},{"type":"Feature","properties":{"name":"CQ56","type":"Signals","notes":"","section":"Cowlairs","equipment_number":[{"number":"18262933","label":"AWS YE"},{"number":"18262934","label":"AWS YS"},{"number":"1295675","label":"SPTs"},{"number":"18262896","label":"Signal"}]},"geometry":{"type":"Point","coordinates":[-4.2438766,55.8739281]}},{"type":"Feature","properties":{"name":"CQ248","type":"Signals","notes":"","section":"Cowlairs","equipment_number":[{"number":"18262935","label":"AWS YE"},{"number":"18262936","label":"AWS YS"},{"number":"1295664","label":"SPTs"},{"number":"18262897","label":"Signal"}]},"geometry":{"type":"Point","coordinates":[-4.2437344,55.8739145]}},{"type":"Feature","properties":{"name":"CQ54","type":"Signals","notes":"","section":"Cowlairs","equipment_number":[{"number":"1112728","label":"AWS"},{"number":"1295667","label":"SPTs"},{"number":"18761406","label":"RTI"},{"number":"479896","label":"Signal"},{"number":"1112996","label":"TPWS"}]},"geometry":{"type":"Point","coordinates":[-4.2414468,55.8775219]}},{"type":"Feature","properties":{"name":"CQ246","type":"Signals","notes":"","section":"Cowlairs","equipment_number":[{"number":"1721620","label":"AWS"},{"number":"1295668","label":"SPTs"},{"number":"18761407","label":"RTI"},{"number":"479895","label":"Signal"},{"number":"1112988","label":"TPWS"}]},"geometry":{"type":"Point","coordinates":[-4.2413019,55.8775039]}},{"type":"Feature","properties":{"name":"CQ53","type":"Signals","notes":"","section":"Cowlairs","equipment_number":[{"number":"1112731","label":"AWS"},{"number":"2580557","label":"SPTs"},{"number":"494502","label":"RTI"},{"number":"479818","label":"Signal"},{"number":"1110089","label":"TPWS"}]},"geometry":{"type":"Point","coordinates":[-4.2388188,55.8812688]}},{"type":"Feature","properties":{"name":"CQ245","type":"Signals","notes":"","section":"Cowlairs","equipment_number":[{"number":"1112730","label":"AWS"},{"number":"2580801","label":"SPTs"},{"number":"479809","label":"Signal"},{"number":"1110088","label":"TPWS"}]},"geometry":{"type":"Point","coordinates":[-4.2389636,55.8812989]}},{"type":"Feature","properties":{"name":"CQ241","type":"Signals","notes":"","section":"Cowlairs","equipment_number":[{"number":"2580800","label":"SPTs"},{"number":"494508","label":"RTI"},{"number":"479806","label":"Signal"},{"number":"1112980","label":"TPWS"}]},"geometry":{"type":"Point","coordinates":[-4.238674,55.88135]}},{"type":"Feature","properties":{"name":"CQ427","type":"Signals","notes":"","section":"Cowlairs","equipment_number":[{"number":"1468904","label":"AWS"},{"number":"2580802","label":"SPTs"},{"number":"494797","label":"RTI"},{"number":"479386","label":"Signal"}]},"geometry":{"type":"Point","coordinates":[-4.2380445,55.8819845]}},{"type":"Feature","properties":{"name":"CC52","type":"Signals","notes":"","section":"Cowlairs","equipment_number":[{"number":"1112729","label":"AWS"},{"number":"2589306","label":"SPTs"},{"number":"494483","label":"RTI"},{"number":"479790","label":"Signal"},{"number":"2521265","label":"Position Light"},{"number":"1822595","label":"TPWS"}]},"geometry":{"type":"Point","coordinates":[-4.2387386,55.8831189]}},{"type":"Feature","properties":{"name":"CC238","type":"Signals","notes":"","section":"Cowlairs","equipment_number":[{"number":"1112570","label":"AWS"},{"number":"2589162","label":"SPTs"},{"number":"494479","label":"RTI"},{"number":"479792","label":"Signal"},{"number":"2521222","label":"Position Light"},{"number":"1821003","label":"TPWS"}]},"geometry":{"type":"Point","coordinates":[-4.2385884,55.883122]}},{"type":"Feature","properties":{"name":"CC240","type":"Signals","notes":"","section":"Cowlairs","equipment_number":[{"number":"2589189","label":"SPTs"},{"number":"468726","label":"RTI"},{"number":"488319","label":"Signal"},{"number":"1822593","label":"TPWS"}]},"geometry":{"type":"Point","coordinates":[-4.2384207,55.883149]}},{"type":"Feature","properties":{"name":"CC535","type":"Signals","notes":"","section":"Cowlairs","equipment_number":[{"number":"2580772","label":"SPTs"},{"number":"494500","label":"RTI"},{"number":"479800","label":"Position Light"}]},"geometry":{"type":"Point","coordinates":[-4.2393166,55.8850026]}},{"type":"Feature","properties":{"name":"CC605","type":"Signals","notes":"","section":"Cowlairs","equipment_number":[{"number":"2580773","label":"SPTs"},{"number":"2746268","label":"RTI"},{"number":"483614","label":"Position Light"}]},"geometry":{"type":"Point","coordinates":[-4.2405939,55.8875123]}},{"type":"Feature","properties":{"name":"CC303","type":"Signals","notes":"","section":"Cowlairs","equipment_number":[{"number":"1694924","label":"AWS"},{"number":"2580763","label":"SPTs"},{"number":"2746267","label":"RTI"},{"number":"483615","label":"Signal"},{"number":"1821002","label":"TPWS"}]},"geometry":{"type":"Point","coordinates":[-4.2410652,55.8880331]}},{"type":"Feature","properties":{"name":"CC532","type":"Signals","notes":"","section":"Cowlairs","equipment_number":[{"number":"2580769","label":"SPTs"},{"number":"488290","label":"Position Light"}]},"geometry":{"type":"Point","coordinates":[-4.2405408,55.888346]}},{"type":"Feature","properties":{"name":"CC531","type":"Signals","notes":"","section":"Cowlairs","equipment_number":[{"number":"2580768","label":"SPTs"},{"number":"488289","label":"Position Light"}]},"geometry":{"type":"Point","coordinates":[-4.2404644,55.8883678]}},{"type":"Feature","properties":{"name":"CC529","type":"Signals","notes":"","section":"Cowlairs","equipment_number":[{"number":"2580767","label":"SPTs"},{"number":"488291","label":"Position Light"}]},"geometry":{"type":"Point","coordinates":[-4.2404456,55.8886927]}},{"type":"Feature","properties":{"name":"CC235","type":"Signals","notes":"","section":"Cowlairs","equipment_number":[{"number":"488318","label":"Signal"},{"number":"1593287","label":"TPWS"}]},"geometry":{"type":"Point","coordinates":[-4.2405663,55.8885664]}},{"type":"Feature","properties":{"name":"CC237","type":"Signals","notes":"","section":"Cowlairs","equipment_number":[{"number":"1694923","label":"AWS"},{"number":"471874","label":"RTI"},{"number":"488286","label":"Signal"},{"number":"1110115","label":"TPWS"}]},"geometry":{"type":"Point","coordinates":[-4.2407259,55.8885874]}},{"type":"Feature","properties":{"name":"CC51","type":"Signals","notes":"","section":"Cowlairs","equipment_number":[{"number":"1112580","label":"AWS"},{"number":"2580761","label":"SPTs"},{"number":"494521","label":"RTI"},{"number":"479853","label":"Signal"},{"number":"1593307","label":"TPWS"}]},"geometry":{"type":"Point","coordinates":[-4.2406575,55.8885889]}},{"type":"Feature","properties":{"name":"CC525","type":"Signals","notes":"","section":"Cowlairs","equipment_number":[{"number":"2580765","label":"SPTs"},{"number":"488287","label":"Position Light"}]},"geometry":{"type":"Point","coordinates":[-4.240565,55.88935]}},{"type":"Feature","properties":{"name":"CC523","type":"Signals","notes":"","section":"Cowlairs","equipment_number":[{"number":"488288","label":"Position Light"}]},"geometry":{"type":"Point","coordinates":[-4.2406387,55.889353]}},{"type":"Feature","properties":{"name":"CE50","type":"Signals","notes":"","section":"Cowlairs","equipment_number":[{"number":"1694988","label":"AWS"},{"number":"2589753","label":"SPTs"},{"number":"468818","label":"RTI"},{"number":"488330","label":"Signal"},{"number":"1110082","label":"TPWS"}]},"geometry":{"type":"Point","coordinates":[-4.2409203,55.8900373]}},{"type":"Feature","properties":{"name":"CE232","type":"Signals","notes":"","section":"Cowlairs","equipment_number":[{"number":"1694968","label":"AWS"},{"number":"2589562","label":"SPTs"},{"number":"471864","label":"RTI"},{"number":"488104","label":"Signal"},{"number":"1593293","label":"TPWS"}]},"geometry":{"type":"Point","coordinates":[-4.2408614,55.8900372]}},{"type":"Feature","properties":{"name":"CC533","type":"Signals","notes":"","section":"Cowlairs","equipment_number":[{"number":"2580770","label":"SPTs"},{"number":"1806178","label":"Position Light"}]},"geometry":{"type":"Point","coordinates":[-4.2404308,55.8900673]}},{"type":"Feature","properties":{"name":"CC527","type":"Signals","notes":"","section":"Cowlairs","equipment_number":[{"number":"2580778","label":"SPTs"},{"number":"488277","label":"Position Light"}]},"geometry":{"type":"Point","coordinates":[-4.2405033,55.8900778]}},{"type":"Feature","properties":{"name":"CE304","type":"Signals","notes":"","section":"Cowlairs","equipment_number":[{"number":"483966","label":"AWS"},{"number":"2589608","label":"SPTs"},{"number":"2580780","label":"SPTs"},{"number":"488275","label":"Signal"},{"number":"1113004","label":"TPWS"}]},"geometry":{"type":"Point","coordinates":[-4.2411416,55.8900798]}},{"type":"Feature","properties":{"name":"CE230","type":"Signals","notes":"","section":"Cowlairs","equipment_number":[{"number":"2580779","label":"SPTs"},{"number":"479831","label":"Signal"},{"number":"1112990","label":"TPWS"}]},"geometry":{"type":"Point","coordinates":[-4.2405131,55.8915571]}},{"type":"Feature","properties":{"name":"CS426","type":"Signals","notes":"","section":"Cowlairs","equipment_number":[{"number":"1112746","label":"AWS"},{"number":"1780913","label":"RTI"},{"number":"1468692","label":"Signal"},{"number":"1800866","label":"TPWS"}]},"geometry":{"type":"Point","coordinates":[-4.2348629,55.8828953]}},{"type":"Feature","properties":{"name":"CC320","type":"Signals","notes":"","section":"Cowlairs","equipment_number":[{"number":"1694925","label":"AWS"},{"number":"2579389","label":"SPTs"},{"number":"493581","label":"RTI"},{"number":"481704","label":"Signal"},{"number":"1468748","label":"Position Light"},{"number":"1468665","label":"TPWS"}]},"geometry":{"type":"Point","coordinates":[-4.2380946,55.8850137]}},{"type":"Feature","properties":{"name":"CC402","type":"Signals","notes":"","section":"Cowlairs","equipment_number":[{"number":"9261553","label":"AWS"},{"number":"9261559","label":"SPTs"},{"number":"9261556","label":"RTI"},{"number":"9261501","label":"Signal"},{"number":"9261502","label":"Position Light"},{"number":"9261555","label":"TPWS"}]},"geometry":{"type":"Point","coordinates":[-4.2379793,55.8850678]}},{"type":"Feature","properties":{"name":"CS403","type":"Signals","notes":"","section":"Cowlairs","equipment_number":[{"number":"1694930","label":"AWS"},{"number":"2579390","label":"SPTs"},{"number":"468955","label":"RTI"},{"number":"488310","label":"Signal"},{"number":"1593325","label":"TPWS"}]},"geometry":{"type":"Point","coordinates":[-4.234678,55.8830313]}},{"type":"Feature","properties":{"name":"CS321","type":"Signals","notes":"","section":"Cowlairs","equipment_number":[{"number":"1694926","label":"AWS"},{"number":"19396412","label":"SPTs"},{"number":"481757","label":"Signal"},{"number":"1468668","label":"TPWS"}]},"geometry":{"type":"Point","coordinates":[-4.2345707,55.8831035]}},{"type":"Feature","properties":{"name":"CS322","type":"Signals","notes":"","section":"Cowlairs","equipment_number":[{"number":"1721602","label":"AWS"},{"number":"2579393","label":"SPTs"},{"number":"468916","label":"RTI"},{"number":"488308","label":"Signal"},{"number":"1112909","label":"TPWS"}]},"geometry":{"type":"Point","coordinates":[-4.2306725,55.8818761]}},{"type":"Feature","properties":{"name":"CS404","type":"Signals","notes":"","section":"Cowlairs","equipment_number":[{"number":"1721734","label":"AWS"},{"number":"2579392","label":"SPTs"},{"number":"488309","label":"Signal"},{"number":"1112908","label":"TPWS"}]},"geometry":{"type":"Point","coordinates":[-4.2306135,55.8819588]}},{"type":"Feature","properties":{"name":"CE302","type":"Signals","notes":"","section":"Cowlairs","equipment_number":[{"number":"1694973","label":"AWS"},{"number":"2589588","label":"SPTs"},{"number":"483589","label":"Signal"},{"number":"1113002","label":"TPWS"}]},"geometry":{"type":"Point","coordinates":[-4.2438722,55.8886382]}},{"type":"Feature","properties":{"name":"CE604","type":"Signals","notes":"","section":"Cowlairs","equipment_number":[{"number":"2580787","label":"SPTs"},{"number":"488285","label":"Position Light"}]},"geometry":{"type":"Point","coordinates":[-4.2431537,55.8886013]}},{"type":"Feature","properties":{"name":"CE305","type":"Signals","notes":"","section":"Cowlairs","equipment_number":[{"number":"483966","label":"AWS"},{"number":"2589628","label":"SPTs"},{"number":"488295","label":"Signal"},{"number":"1113012","label":"TPWS"}]},"geometry":{"type":"Point","coordinates":[-4.2429,55.8888416]}},{"type":"Feature","properties":{"name":"CE608","type":"Signals","notes":"","section":"Cowlairs","equipment_number":[{"number":"19001069","label":"SPTs"},{"number":"1540370","label":"RTI"},{"number":"1540355","label":"Position Light"}]},"geometry":{"type":"Point","coordinates":[-4.2458089,55.8886377]}},{"type":"Feature","properties":{"name":"CE306","type":"Signals","notes":"","section":"Cowlairs","equipment_number":[{"number":"484350","label":"AWS"},{"number":"2589648","label":"SPTs"},{"number":"494979","label":"RTI"},{"number":"483611","label":"Signal"},{"number":"1110124","label":"TPWS"}]},"geometry":{"type":"Point","coordinates":[-4.2471447,55.8887791]}},{"type":"Feature","properties":{"name":"CE307","type":"Signals","notes":"","section":"Cowlairs","equipment_number":[{"number":"484375","label":"AWS"},{"number":"1468686","label":"Signal"}]},"geometry":{"type":"Point","coordinates":[-4.2491759,55.8888798]}},{"type":"Feature","properties":{"name":"CE308","type":"Signals","notes":"","section":"Cowlairs","equipment_number":[{"number":"484351","label":"AWS"},{"number":"483707","label":"Signal"}]},"geometry":{"type":"Point","coordinates":[-4.2567343,55.8900754]}},{"type":"Feature","properties":{"name":"CE310","type":"Signals","notes":"","section":"Cowlairs","equipment_number":[{"number":"484354","label":"AWS"},{"number":"483605","label":"Signal"}]},"geometry":{"type":"Point","coordinates":[-4.2737255,55.8934791]}},{"type":"Feature","properties":{"name":"CS405","type":"Signals","notes":"","section":"Cowlairs","equipment_number":[{"number":"1468896","label":"AWS"},{"number":"2579394","label":"SPTs"},{"number":"468907","label":"RTI"},{"number":"488306","label":"Signal"},{"number":"488095","label":"Position Light"},{"number":"1468669","label":"TPWS"}]},"geometry":{"type":"Point","coordinates":[-4.2285917,55.8812463]}},{"type":"Feature","properties":{"name":"CS323","type":"Signals","notes":"","section":"Cowlairs","equipment_number":[{"number":"1468873","label":"AWS"},{"number":"2579395","label":"SPTs"},{"number":"471866","label":"RTI"},{"number":"488206","label":"Signal"},{"number":"488205","label":"Position Light"},{"number":"1112911","label":"TPWS"}]},"geometry":{"type":"Point","coordinates":[-4.2276502,55.8810319]}},{"type":"Feature","properties":{"name":"CS407","type":"Signals","notes":"","section":"Cowlairs","equipment_number":[{"number":"2579396","label":"SPTs"},{"number":"488531","label":"Signal"},{"number":"1112910","label":"TPWS"}]},"geometry":{"type":"Point","coordinates":[-4.2276261,55.88105]}},{"type":"Feature","properties":{"name":"CS409","type":"Signals","notes":"","section":"Cowlairs","equipment_number":[{"number":"2579397","label":"SPTs"},{"number":"488387","label":"Signal"}]},"geometry":{"type":"Point","coordinates":[-4.2275228,55.8811079]}},{"type":"Feature","properties":{"name":"CS324","type":"Signals","notes":"","section":"Cowlairs","equipment_number":[{"number":"1694927","label":"AWS"},{"number":"18925731","label":"SPTs"},{"number":"468793","label":"RTI"},{"number":"481715","label":"Signal"},{"number":"488268","label":"Position Light"},{"number":"1112904","label":"TPWS"}]},"geometry":{"type":"Point","coordinates":[-4.2241042,55.8783657]}},{"type":"Feature","properties":{"name":"CS406","type":"Signals","notes":"","section":"Cowlairs","equipment_number":[{"number":"10154182","label":"SPTs"},{"number":"10154237","label":"RTI"},{"number":"9601565","label":"Signal"},{"number":"10154184","label":"TPWS"}]},"geometry":{"type":"Point","coordinates":[-4.2240049,55.8784522]}},{"type":"Feature","properties":{"name":"CS325","type":"Signals","notes":"","section":"Cowlairs","equipment_number":[{"number":"1694928","label":"AWS"},{"number":"2589241","label":"SPTs"},{"number":"481690","label":"Signal"}]},"geometry":{"type":"Point","coordinates":[-4.2227775,55.8773663]}},{"type":"Feature","properties":{"name":"CS326","type":"Signals","notes":"","section":"Cowlairs","equipment_number":[{"number":"1694929","label":"AWS"},{"number":"18668254","label":"SPTs"},{"number":"488487","label":"Signal"}]},"geometry":{"type":"Point","coordinates":[-4.2175331,55.8715092]}},{"type":"Feature","properties":{"name":"CS328","type":"Signals","notes":"","section":"Cowlairs","equipment_number":[{"number":"9601563","label":"AWS"},{"number":"9601564","label":"Signal"}]},"geometry":{"type":"Point","coordinates":[-4.2147022,55.8667641]}},{"type":"Feature","properties":{"name":"CS621","type":"Signals","notes":"","section":"Cowlairs","equipment_number":[{"number":"7698882","label":"SPTs"},{"number":"488293","label":"Position Light"}]},"geometry":{"type":"Point","coordinates":[-4.2175466,55.8750636]}},{"type":"Feature","properties":{"name":"CS619","type":"Signals","notes":"","section":"Cowlairs","equipment_number":[{"number":"488266","label":"Position Light"}]},"geometry":{"type":"Point","coordinates":[-4.2248169,55.8788112]}},{"type":"Feature","properties":{"name":"CS445","type":"Signals","notes":"","section":"Cowlairs","equipment_number":[{"number":"1694932","label":"AWS"},{"number":"2589264","label":"SPTs"},{"number":"468930","label":"RTI"},{"number":"488305","label":"Signal"},{"number":"1972804","label":"TPWS"}]},"geometry":{"type":"Point","coordinates":[-4.2216758,55.8758502]}},{"type":"Feature","properties":{"name":"CS446","type":"Signals","notes":"","section":"Cowlairs","equipment_number":[{"number":"1694933","label":"AWS"},{"number":"2589285","label":"SPTs"},{"number":"488504","label":"Signal"}]},"geometry":{"type":"Point","coordinates":[-4.2218846,55.8760451]}},{"type":"Feature","properties":{"name":"CN442","type":"Signals","notes":"","section":"Cowlairs","equipment_number":[{"number":"1695151","label":"AWS"},{"number":"488503","label":"Signal"}]},"geometry":{"type":"Point","coordinates":[-4.1836371,55.8833318]}},{"type":"Feature","properties":{"name":"CS443","type":"Signals","notes":"","section":"Cowlairs","equipment_number":[{"number":"1694931","label":"AWS"},{"number":"488506","label":"Signal"}]},"geometry":{"type":"Point","coordinates":[-4.1963336,55.8797165]}},{"type":"Feature","properties":{"name":"CN440","type":"Signals","notes":"","section":"Cowlairs","equipment_number":[{"number":"1112539","label":"AWS"},{"number":"2589766","label":"SPTs"},{"number":"488481","label":"Signal"}]},"geometry":{"type":"Point","coordinates":[-4.1650656,55.8890068]}},{"type":"Feature","properties":{"name":"CN441","type":"Signals","notes":"","section":"Cowlairs","equipment_number":[{"number":"1112538","label":"AWS"},{"number":"2589767","label":"SPTs"},{"number":"488480","label":"Signal"}]},"geometry":{"type":"Point","coordinates":[-4.1650481,55.8889181]}},{"type":"Feature","properties":{"name":"CN438","type":"Signals","notes":"","section":"Cowlairs","equipment_number":[{"number":"1695150","label":"AWS"},{"number":"488496","label":"Signal"}]},"geometry":{"type":"Point","coordinates":[-4.0984686,55.8886706]}},{"type":"Feature","properties":{"name":"CN436","type":"Signals","notes":"","section":"Cowlairs","equipment_number":[{"number":"1695148","label":"AWS"},{"number":"2589765","label":"SPTs"},{"number":"468724","label":"RTI"},{"number":"488300","label":"Signal"}]},"geometry":{"type":"Point","coordinates":[-4.0772815,55.8853702]}},{"type":"Feature","properties":{"name":"CN434","type":"Signals","notes":"","section":"Cowlairs","equipment_number":[{"number":"1721618","label":"AWS"},{"number":"2589764","label":"SPTs"},{"number":"488499","label":"Signal"}]},"geometry":{"type":"Point","coordinates":[-4.0614619,55.8857891]}},{"type":"Feature","properties":{"name":"CN439","type":"Signals","notes":"","section":"Cowlairs","equipment_number":[{"number":"488514","label":"Signal"}]},"geometry":{"type":"Point","coordinates":[-4.1448014,55.8898976]}},{"type":"Feature","properties":{"name":"CN437","type":"Signals","notes":"","section":"Cowlairs","equipment_number":[{"number":"1695149","label":"AWS"},{"number":"2580793","label":"SPTs"},{"number":"488502","label":"Signal"}]},"geometry":{"type":"Point","coordinates":[-4.0863524,55.886686]}},{"type":"Feature","properties":{"name":"CN483","type":"Signals","notes":"","section":"Cowlairs","equipment_number":[{"number":"1112519","label":"AWS"},{"number":"2589769","label":"SPTs"},{"number":"488312","label":"Signal"},{"number":"1112970","label":"TPWS"}]},"geometry":{"type":"Point","coordinates":[-4.067156,55.883686]}},{"type":"Feature","properties":{"name":"CN481","type":"Signals","notes":"","section":"Cowlairs","equipment_number":[{"number":"1112518","label":"AWS"},{"number":"19683736","label":"SPTs"},{"number":"488511","label":"Signal"}]},"geometry":{"type":"Point","coordinates":[-4.0614831,55.8827969]}},{"type":"Feature","properties":{"name":"CN435","type":"Signals","notes":"","section":"Cowlairs","equipment_number":[{"number":"1695147","label":"AWS"},{"number":"2580792","label":"SPTs"},{"number":"488301","label":"Signal"}]},"geometry":{"type":"Point","coordinates":[-4.0675691,55.8844213]}},{"type":"Feature","properties":{"name":"CN433","type":"Signals","notes":"","section":"Cowlairs","equipment_number":[{"number":"1695145","label":"AWS"},{"number":"2589763","label":"SPTs"},{"number":"488500","label":"Signal"}]},"geometry":{"type":"Point","coordinates":[-4.0464405,55.8899427]}},{"type":"Feature","properties":{"name":"CN432","type":"Signals","notes":"","section":"Cowlairs","equipment_number":[{"number":"1695144","label":"AWS"},{"number":"2589762","label":"SPTs"},{"number":"468747","label":"RTI"},{"number":"488298","label":"Signal"},{"number":"488314","label":"Position Light"}]},"geometry":{"type":"Point","coordinates":[-4.0435174,55.8915413]}},{"type":"Feature","properties":{"name":"CN351","type":"Signals","notes":"","section":"Cowlairs","equipment_number":[{"number":"2589754","label":"SPTs"}]},"geometry":{"type":"Point","coordinates":[-4.0439416,55.8893709]}},{"type":"Feature","properties":{"name":"CN451","type":"Signals","notes":"","section":"Cowlairs","equipment_number":[{"number":"2589768","label":"SPTs"}]},"geometry":{"type":"Point","coordinates":[-4.03266,55.9004701]}},{"type":"Feature","properties":{"name":"CN353","type":"Signals","notes":"","section":"Cowlairs","equipment_number":[{"number":"2580788","label":"SPTs"}]},"geometry":{"type":"Point","coordinates":[-4.0326064,55.9004468]}},{"type":"Feature","properties":{"name":"CN354","type":"Signals","notes":"","section":"Cowlairs","equipment_number":[{"number":"2589756","label":"SPTs"}]},"geometry":{"type":"Point","coordinates":[-4.0281137,55.9059622]}},{"type":"Feature","properties":{"name":"CN356","type":"Signals","notes":"","section":"Cowlairs"},"geometry":{"type":"Point","coordinates":[-4.0180896,55.9206226]}},{"type":"Feature","properties":{"name":"CN357","type":"Signals","notes":"","section":"Cowlairs"},"geometry":{"type":"Point","coordinates":[-4.0154611,55.9220729]}},{"type":"Feature","properties":{"name":"CN359","type":"Signals","notes":"","section":"Cowlairs","equipment_number":[{"number":"2589758","label":"SPTs"}]},"geometry":{"type":"Point","coordinates":[-3.9965908,55.9331809]}},{"type":"Feature","properties":{"name":"CN362","type":"Signals","notes":"","section":"Cowlairs","equipment_number":[{"number":"2589759","label":"SPTs"}]},"geometry":{"type":"Point","coordinates":[-3.9818583,55.9412075]}},{"type":"Feature","properties":{"name":"CN363","type":"Signals","notes":"","section":"Cowlairs","equipment_number":[{"number":"2589760","label":"SPTs"}]},"geometry":{"type":"Point","coordinates":[-3.9798357,55.9421646]}},{"type":"Feature","properties":{"name":"CN364","type":"Signals","notes":"","section":"Cowlairs","equipment_number":[{"number":"2589761","label":"SPTs"}]},"geometry":{"type":"Point","coordinates":[-3.9648076,55.9501512]}},{"type":"Feature","properties":{"name":"CN365","type":"Signals","notes":"","section":"Cowlairs"},"geometry":{"type":"Point","coordinates":[-3.9645076,55.9529288]}},{"type":"Feature","properties":{"name":"CN367","type":"Signals","notes":"","section":"Cowlairs","equipment_number":[{"number":"1731967","label":"SPTs"}]},"geometry":{"type":"Point","coordinates":[-3.955257,55.9657621]}},{"type":"Feature","properties":{"name":"CN352","type":"Signals","notes":"","section":"Cowlairs","equipment_number":[{"number":"2589755","label":"SPTs"}]},"geometry":{"type":"Point","coordinates":[-4.0390002,55.8949171]}},{"type":"Feature","properties":{"name":"CN358","type":"Signals","notes":"","section":"Cowlairs","equipment_number":[{"number":"2589757","label":"SPTs"}]},"geometry":{"type":"Point","coordinates":[-4.0034944,55.9288724]}},{"type":"Feature","properties":{"name":"CN366","type":"Signals","notes":"","section":"Cowlairs","equipment_number":[{"number":"1731966","label":"SPTs"}]},"geometry":{"type":"Point","coordinates":[-3.9581319,55.9634971]}},{"type":"Feature","properties":{"name":"CN368","type":"Signals","notes":"","section":"Cowlairs","equipment_number":[{"number":"19712295","label":"SPTs"}]},"geometry":{"type":"Point","coordinates":[-3.9444774,55.9753929]}},{"type":"Feature","properties":{"name":"CE311","type":"Signals","notes":"","section":"Cowlairs","equipment_number":[{"number":"1831071","label":"AWS"},{"number":"1831116","label":"Signal"}]},"geometry":{"type":"Point","coordinates":[-4.276889,55.8948097]}},{"type":"Feature","properties":{"name":"CE313BR","type":"Signals","notes":"","section":"Cowlairs","equipment_number":[{"number":"17749961","label":"Banner"},{"number":"19269953","label":"Banner"}]},"geometry":{"type":"Point","coordinates":[-4.2938501,55.8988124]}},{"type":"Feature","properties":{"name":"CE313","type":"Signals","notes":"","section":"Cowlairs","equipment_number":[{"number":"1831070","label":"AWS"},{"number":"17749960","label":"RTI"},{"number":"17749959","label":"Signal"}]},"geometry":{"type":"Point","coordinates":[-4.2962136,55.8986364]}},{"type":"Feature","properties":{"name":"CE480","type":"Signals","notes":"","section":"Cowlairs","equipment_number":[{"number":"1829398","label":"AWS"},{"number":"1831117","label":"Signal"}]},"geometry":{"type":"Point","coordinates":[-4.3064715,55.8947407]}},{"type":"Feature","properties":{"name":"CE314","type":"Signals","notes":"","section":"Cowlairs","equipment_number":[{"number":"1831069","label":"AWS"},{"number":"2580781","label":"SPTs"},{"number":"1831114","label":"Signal"}]},"geometry":{"type":"Point","coordinates":[-4.3058849,55.895748]}},{"type":"Feature","properties":{"name":"CE316","type":"Signals","notes":"","section":"Cowlairs","equipment_number":[{"number":"1831068","label":"AWS"},{"number":"1831105","label":"Signal"}]},"geometry":{"type":"Point","coordinates":[-4.3229197,55.8987508]}},{"type":"Feature","properties":{"name":"CE482","type":"Signals","notes":"","section":"Cowlairs","equipment_number":[{"number":"1829399","label":"AWS"},{"number":"1831118","label":"Signal"}]},"geometry":{"type":"Point","coordinates":[-4.3118208,55.8934629]}},{"type":"Feature","properties":{"name":"CE481","type":"Signals","notes":"","section":"Cowlairs","equipment_number":[{"number":"17749938","label":"AWS"},{"number":"17749941","label":"RTI"},{"number":"17749939","label":"Signal"},{"number":"17749940","label":"TPWS"}]},"geometry":{"type":"Point","coordinates":[-4.3139065,55.8935553]}},{"type":"Feature","properties":{"name":"CE486","type":"Signals","notes":"","section":"Cowlairs","equipment_number":[{"number":"17749955","label":"Signal"},{"number":"17749956","label":"TPWS"}]},"geometry":{"type":"Point","coordinates":[-4.3204557,55.8914364]}},{"type":"Feature","properties":{"name":"CE484","type":"Signals","notes":"","section":"Cowlairs","equipment_number":[{"number":"17749951","label":"AWS"},{"number":"17749948","label":"Signal"},{"number":"17749949","label":"TPWS"}]},"geometry":{"type":"Point","coordinates":[-4.3182178,55.8932235]}},{"type":"Feature","properties":{"name":"CS426 BR","type":"Signals","notes":"","section":"Cowlairs","equipment_number":[{"number":"1780563","label":"Banner"}]},"geometry":{"type":"Point","coordinates":[-4.2361772,55.8828521]}},{"type":"Feature","properties":{"name":"CE521","type":"Signals","notes":"","section":"Cowlairs","equipment_number":[{"number":"2580785","label":"SPTs"},{"number":"480030","label":"Position Light"}]},"geometry":{"type":"Point","coordinates":[-4.2396896,55.8937081]}},{"type":"Feature","properties":{"name":"CE519","type":"Signals","notes":"","section":"Cowlairs","equipment_number":[{"number":"2580539","label":"SPTs"},{"number":"488294","label":"Position Light"}]},"geometry":{"type":"Point","coordinates":[-4.2395541,55.8936893]}},{"type":"Feature","properties":{"name":"CE48","type":"Signals","notes":"","section":"Cowlairs","equipment_number":[{"number":"1468640","label":"AWS"},{"number":"2589752","label":"SPTs"},{"number":"480020","label":"Signal"}]},"geometry":{"type":"Point","coordinates":[-4.2373057,55.8960941]}},{"type":"Feature","properties":{"name":"CE226","type":"Signals","notes":"","section":"Cowlairs","equipment_number":[{"number":"1112581","label":"AWS"},{"number":"2589537","label":"SPTs"},{"number":"488085","label":"Signal"}]},"geometry":{"type":"Point","coordinates":[-4.2372654,55.8960749]}},{"type":"Feature","properties":{"name":"CE47","type":"Signals","notes":"","section":"Cowlairs","equipment_number":[{"number":"1112582","label":"AWS"},{"number":"10338612","label":"SPTs"},{"number":"18761405","label":"RTI"},{"number":"1468693","label":"Signal"},{"number":"1110126","label":"TPWS"}]},"geometry":{"type":"Point","coordinates":[-4.2371903,55.8960802]}},{"type":"Feature","properties":{"name":"CE225","type":"Signals","notes":"","section":"Cowlairs","equipment_number":[{"number":"1694964","label":"AWS"},{"number":"2589514","label":"SPTs"},{"number":"468814","label":"RTI"},{"number":"488273","label":"Signal"},{"number":"1110107","label":"TPWS"}]},"geometry":{"type":"Point","coordinates":[-4.2372427,55.8960967]}},{"type":"Feature","properties":{"name":"CE46","type":"Signals","notes":"","section":"Cowlairs","equipment_number":[{"number":"1721616","label":"AWS"},{"number":"2580784","label":"SPTs"},{"number":"480031","label":"Signal"},{"number":"19655848","label":"TPWS"}]},"geometry":{"type":"Point","coordinates":[-4.2321589,55.9002874]}},{"type":"Feature","properties":{"name":"CE224","type":"Signals","notes":"","section":"Cowlairs","equipment_number":[{"number":"1112583","label":"AWS"},{"number":"2589494","label":"SPTs"},{"number":"488109","label":"Signal"}]},"geometry":{"type":"Point","coordinates":[-4.2321079,55.900261]}},{"type":"Feature","properties":{"name":"CE223","type":"Signals","notes":"","section":"Cowlairs","equipment_number":[{"number":"1721608","label":"AWS"},{"number":"2589473","label":"SPTs"},{"number":"488108","label":"Signal"}]},"geometry":{"type":"Point","coordinates":[-4.2263491,55.9033213]}},{"type":"Feature","properties":{"name":"CE45","type":"Signals","notes":"","section":"Cowlairs","equipment_number":[{"number":"1112601","label":"AWS"},{"number":"2589750","label":"SPTs"},{"number":"480035","label":"Signal"},{"number":"1863587","label":"TPWS"}]},"geometry":{"type":"Point","coordinates":[-4.2262553,55.9032461]}},{"type":"Feature","properties":{"name":"CE44","type":"Signals","notes":"","section":"Cowlairs","equipment_number":[{"number":"1112576","label":"AWS"},{"number":"2589738","label":"SPTs"},{"number":"480009","label":"Signal"}]},"geometry":{"type":"Point","coordinates":[-4.2239073,55.9042515]}},{"type":"Feature","properties":{"name":"CE222","type":"Signals","notes":"","section":"Cowlairs","equipment_number":[{"number":"1112609","label":"AWS"},{"number":"2589452","label":"SPTs"},{"number":"488304","label":"Signal"}]},"geometry":{"type":"Point","coordinates":[-4.2235211,55.9043237]}},{"type":"Feature","properties":{"name":"CE42","type":"Signals","notes":"","section":"Cowlairs","equipment_number":[{"number":"1112622","label":"AWS"},{"number":"2580794","label":"SPTs"},{"number":"480007","label":"Signal"},{"number":"19655840","label":"TPWS"}]},"geometry":{"type":"Point","coordinates":[-4.2141713,55.9080154]}},{"type":"Feature","properties":{"name":"CE220","type":"Signals","notes":"","section":"Cowlairs","equipment_number":[{"number":"1112621","label":"AWS"},{"number":"2589418","label":"SPTs"},{"number":"488329","label":"Signal"}]},"geometry":{"type":"Point","coordinates":[-4.2139809,55.9079913]}},{"type":"Feature","properties":{"name":"CE219","type":"Signals","notes":"","section":"Cowlairs","equipment_number":[{"number":"1112624","label":"AWS"},{"number":"2589381","label":"SPTs"},{"number":"488328","label":"Signal"}]},"geometry":{"type":"Point","coordinates":[-4.2092394,55.9099044]}},{"type":"Feature","properties":{"name":"CE41","type":"Signals","notes":"","section":"Cowlairs","equipment_number":[{"number":"1112623","label":"AWS"},{"number":"2589693","label":"SPTs"},{"number":"488105","label":"Signal"},{"number":"19100530","label":"TPWS TS"},{"number":"19655847","label":"TPWS TS"}]},"geometry":{"type":"Point","coordinates":[-4.2091509,55.9098427]}},{"type":"Feature","properties":{"name":"CE41BR","type":"Signals","notes":"","section":"Cowlairs","equipment_number":[{"number":"488097","label":"Banner"}]},"geometry":{"type":"Point","coordinates":[-4.2064039,55.9107255]}},{"type":"Feature","properties":{"name":"CE40","type":"Signals","notes":"","section":"Cowlairs","equipment_number":[{"number":"1112635","label":"AWS"},{"number":"2589671","label":"SPTs"},{"number":"494468","label":"RTI"},{"number":"480016","label":"Signal"},{"number":"1110127","label":"TPWS"}]},"geometry":{"type":"Point","coordinates":[-4.1993492,55.9123982]}},{"type":"Feature","properties":{"name":"CE218","type":"Signals","notes":"","section":"Cowlairs","equipment_number":[{"number":"1112625","label":"AWS"},{"number":"494455","label":"RTI"},{"number":"480015","label":"Signal"},{"number":"1110128","label":"TPWS"}]},"geometry":{"type":"Point","coordinates":[-4.1992995,55.9123163]}},{"type":"Feature","properties":{"name":"CE515","type":"Signals","notes":"","section":"Cowlairs","equipment_number":[{"number":"2580764","label":"SPTs"},{"number":"488283","label":"Position Light"}]},"geometry":{"type":"Point","coordinates":[-4.1929611,55.9134376]}},{"type":"Feature","properties":{"name":"CE513","type":"Signals","notes":"","section":"Cowlairs","equipment_number":[{"number":"19655851","label":"AWS"},{"number":"2580783","label":"SPTs"},{"number":"19442375","label":"Signal"},{"number":"19655849","label":"TPWS"}]},"geometry":{"type":"Point","coordinates":[-4.1920974,55.9133451]}},{"type":"Feature","properties":{"name":"CE215","type":"Signals","notes":"","section":"Cowlairs","equipment_number":[{"number":"468787","label":"RTI"},{"number":"488317","label":"Signal"},{"number":"1110129","label":"TPWS"}]},"geometry":{"type":"Point","coordinates":[-4.1899749,55.9137178]}},{"type":"Feature","properties":{"name":"CE39","type":"Signals","notes":"","section":"Cowlairs","equipment_number":[{"number":"1112627","label":"AWS"},{"number":"2580777","label":"SPTs"},{"number":"468830","label":"RTI"},{"number":"488271","label":"Signal"},{"number":"1110130","label":"TPWS"}]},"geometry":{"type":"Point","coordinates":[-4.1899963,55.9137614]}},{"type":"Feature","properties":{"name":"CE217","type":"Signals","notes":"","section":"Cowlairs","equipment_number":[{"number":"1721606","label":"AWS"},{"number":"2589333","label":"SPTs"},{"number":"485911","label":"Signal"},{"number":"1110131","label":"TPWS"}]},"geometry":{"type":"Point","coordinates":[-4.1900165,55.9138012]}},{"type":"Feature","properties":{"name":"CE511","type":"Signals","notes":"","section":"Cowlairs","equipment_number":[{"number":"2580782","label":"SPTs"},{"number":"488282","label":"Position Light"}]},"geometry":{"type":"Point","coordinates":[-4.1891662,55.9137956]}},{"type":"Feature","properties":{"name":"CG214","type":"Signals","notes":"","section":"Cowlairs","equipment_number":[{"number":"2580554","label":"SPTs"},{"number":"488316","label":"Signal"},{"number":"1112991","label":"TPWS"}]},"geometry":{"type":"Point","coordinates":[-4.1777919,55.915772]}},{"type":"Feature","properties":{"name":"CG38","type":"Signals","notes":"","section":"Cowlairs","equipment_number":[{"number":"1695032","label":"AWS"},{"number":"2580569","label":"SPTs"},{"number":"488269","label":"Signal"},{"number":"1112992","label":"TPWS"}]},"geometry":{"type":"Point","coordinates":[-4.1777235,55.9157059]}},{"type":"Feature","properties":{"name":"CG212","type":"Signals","notes":"","section":"Cowlairs","equipment_number":[{"number":"1112629","label":"AWS"},{"number":"2580553","label":"SPTs"},{"number":"468785","label":"RTI"},{"number":"488259","label":"Signal"},{"number":"1112993","label":"TPWS"}]},"geometry":{"type":"Point","coordinates":[-4.1777088,55.9156713]}},{"type":"Feature","properties":{"name":"CG210","type":"Signals","notes":"","section":"Cowlairs","equipment_number":[{"number":"2580552","label":"SPTs"},{"number":"468773","label":"RTI"},{"number":"488267","label":"Signal"},{"number":"1112994","label":"TPWS"}]},"geometry":{"type":"Point","coordinates":[-4.17769,55.9156307]}},{"type":"Feature","properties":{"name":"CG506","type":"Signals","notes":"","section":"Cowlairs","equipment_number":[{"number":"2580572","label":"SPTs"},{"number":"469148","label":"RTI"},{"number":"488379","label":"Position Light"},{"number":"19442372","label":"Signal"},{"number":"19655850","label":"TPWS"}]},"geometry":{"type":"Point","coordinates":[-4.1762108,55.9157577]}},{"type":"Feature","properties":{"name":"CG209","type":"Signals","notes":"","section":"Cowlairs","equipment_number":[{"number":"1112632","label":"AWS"},{"number":"2580540","label":"SPTs"},{"number":"468780","label":"RTI"},{"number":"488276","label":"Signal"},{"number":"1110141","label":"TPWS"}]},"geometry":{"type":"Point","coordinates":[-4.1673064,55.917717]}},{"type":"Feature","properties":{"name":"CG37","type":"Signals","notes":"","section":"Cowlairs","equipment_number":[{"number":"1112631","label":"AWS"},{"number":"2580568","label":"SPTs"},{"number":"495207","label":"RTI"},{"number":"480064","label":"Signal"},{"number":"1110133","label":"TPWS"}]},"geometry":{"type":"Point","coordinates":[-4.1672474,55.9176178]}},{"type":"Feature","properties":{"name":"CG36","type":"Signals","notes":"","section":"Cowlairs","equipment_number":[{"number":"1112630","label":"AWS"},{"number":"2580567","label":"SPTs"},{"number":"480047","label":"Signal"},{"number":"19655842","label":"TPWS"}]},"geometry":{"type":"Point","coordinates":[-4.1643507,55.9184833]}},{"type":"Feature","properties":{"name":"CG207","type":"Signals","notes":"","section":"Cowlairs","equipment_number":[{"number":"2580549","label":"SPTs"},{"number":"488099","label":"Signal"}]},"geometry":{"type":"Point","coordinates":[-4.1552018,55.9210787]}},{"type":"Feature","properties":{"name":"CG35","type":"Signals","notes":"","section":"Cowlairs","equipment_number":[{"number":"1112633","label":"AWS"},{"number":"2580566","label":"SPTs"},{"number":"488264","label":"Signal"},{"number":"1110125","label":"TPWS"}]},"geometry":{"type":"Point","coordinates":[-4.1546546,55.9211087]}},{"type":"Feature","properties":{"name":"CG34","type":"Signals","notes":"","section":"Cowlairs","equipment_number":[{"number":"1112611","label":"AWS"},{"number":"2580565","label":"SPTs"},{"number":"488325","label":"Signal"}]},"geometry":{"type":"Point","coordinates":[-4.1472488,55.9229438]}},{"type":"Feature","properties":{"name":"CG33","type":"Signals","notes":"","section":"Cowlairs","equipment_number":[{"number":"1112626","label":"AWS"},{"number":"18779016","label":"SPTs"},{"number":"480042","label":"Signal"},{"number":"19655845","label":"TPWS"}]},"geometry":{"type":"Point","coordinates":[-4.133823,55.9259359]}},{"type":"Feature","properties":{"name":"CG32","type":"Signals","notes":"","section":"Cowlairs","equipment_number":[{"number":"1112628","label":"AWS"},{"number":"18779017","label":"SPTs"},{"number":"480043","label":"Signal"}]},"geometry":{"type":"Point","coordinates":[-4.1325529,55.9263313]}},{"type":"Feature","properties":{"name":"CG30","type":"Signals","notes":"","section":"Cowlairs","equipment_number":[{"number":"1112604","label":"AWS"},{"number":"18779018","label":"SPTs"},{"number":"488313","label":"Signal"}]},"geometry":{"type":"Point","coordinates":[-4.1166416,55.9291358]}},{"type":"Feature","properties":{"name":"CG29","type":"Signals","notes":"","section":"Cowlairs","equipment_number":[{"number":"1112605","label":"AWS"},{"number":"18779019","label":"SPTs"},{"number":"479930","label":"Signal"}]},"geometry":{"type":"Point","coordinates":[-4.1164941,55.9290622]}},{"type":"Feature","properties":{"name":"CG26","type":"Signals","notes":"","section":"Cowlairs","equipment_number":[{"number":"1112606","label":"AWS"},{"number":"18779020","label":"SPTs"},{"number":"480053","label":"Signal"}]},"geometry":{"type":"Point","coordinates":[-4.0994805,55.9325073]}},{"type":"Feature","properties":{"name":"CG27","type":"Signals","notes":"","section":"Cowlairs","equipment_number":[{"number":"1112607","label":"AWS"},{"number":"18779021","label":"SPTs"},{"number":"480051","label":"Signal"}]},"geometry":{"type":"Point","coordinates":[-4.0994939,55.9324148]}},{"type":"Feature","properties":{"name":"CG24","type":"Signals","notes":"","section":"Cowlairs","equipment_number":[{"number":"1468933","label":"AWS"},{"number":"18779022","label":"SPTs"},{"number":"479947","label":"Signal"}]},"geometry":{"type":"Point","coordinates":[-4.0863686,55.9364947]}},{"type":"Feature","properties":{"name":"CG23","type":"Signals","notes":"","section":"Cowlairs","equipment_number":[{"number":"1112618","label":"AWS"},{"number":"18779023","label":"SPTs"},{"number":"479964","label":"Signal"}]},"geometry":{"type":"Point","coordinates":[-4.0822391,55.938255]}},{"type":"Feature","properties":{"name":"CG22","type":"Signals","notes":"","section":"Cowlairs","equipment_number":[{"number":"1112610","label":"AWS"},{"number":"18779024","label":"SPTs"},{"number":"495192","label":"RTI"},{"number":"479951","label":"Signal"}]},"geometry":{"type":"Point","coordinates":[-4.0721437,55.9438443]}},{"type":"Feature","properties":{"name":"CG203","type":"Signals","notes":"","section":"Cowlairs","equipment_number":[{"number":"18779026","label":"SPTs"},{"number":"479963","label":"Signal"},{"number":"1112972","label":"TPWS"}]},"geometry":{"type":"Point","coordinates":[-4.0618569,55.9479859]}},{"type":"Feature","properties":{"name":"CG21","type":"Signals","notes":"","section":"Cowlairs","equipment_number":[{"number":"1112612","label":"AWS"},{"number":"479962","label":"Signal"},{"number":"1112989","label":"TPWS"}]},"geometry":{"type":"Point","coordinates":[-4.0618891,55.9480197]}},{"type":"Feature","properties":{"name":"CG202","type":"Signals","notes":"","section":"Cowlairs","equipment_number":[{"number":"18779028","label":"SPTs"},{"number":"488315","label":"Signal"},{"number":"1112987","label":"TPWS"}]},"geometry":{"type":"Point","coordinates":[-4.0601765,55.9486557]}},{"type":"Feature","properties":{"name":"CG20","type":"Signals","notes":"","section":"Cowlairs","equipment_number":[{"number":"1112603","label":"AWS"},{"number":"479961","label":"Signal"},{"number":"1110135","label":"TPWS"}]},"geometry":{"type":"Point","coordinates":[-4.0601376,55.9486197]}},{"type":"Feature","properties":{"name":"CG19","type":"Signals","notes":"","section":"Cowlairs","equipment_number":[{"number":"1112614","label":"AWS"},{"number":"2589751","label":"SPTs"},{"number":"468796","label":"RTI"},{"number":"488263","label":"Signal"}]},"geometry":{"type":"Point","coordinates":[-4.0462277,55.9517764]}},{"type":"Feature","properties":{"name":"CG18","type":"Signals","notes":"","section":"Cowlairs","equipment_number":[{"number":"1112613","label":"AWS"},{"number":"18779030","label":"SPTs"},{"number":"479931","label":"Signal"},{"number":"19330402","label":"TPWS TS"},{"number":"19655843","label":"TPWS TS"}]},"geometry":{"type":"Point","coordinates":[-4.0443819,55.9523296]}},{"type":"Feature","properties":{"name":"CG17","type":"Signals","notes":"","section":"Cowlairs","equipment_number":[{"number":"1112616","label":"AWS"},{"number":"18779031","label":"SPTs"},{"number":"488331","label":"Signal"},{"number":"19655844","label":"TPWS"}]},"geometry":{"type":"Point","coordinates":[-4.0318501,55.9587872]}},{"type":"Feature","properties":{"name":"CG16","type":"Signals","notes":"","section":"Cowlairs","equipment_number":[{"number":"1112615","label":"AWS"},{"number":"18779032","label":"SPTs"},{"number":"488322","label":"Signal"}]},"geometry":{"type":"Point","coordinates":[-4.0310888,55.9595469]}},{"type":"Feature","properties":{"name":"CG13","type":"Signals","notes":"","section":"Cowlairs","equipment_number":[{"number":"1112634","label":"AWS"},{"number":"18779034","label":"SPTs"},{"number":"479988","label":"Signal"}]},"geometry":{"type":"Point","coordinates":[-4.0179703,55.9681457]}},{"type":"Feature","properties":{"name":"CG14","type":"Signals","notes":"","section":"Cowlairs","equipment_number":[{"number":"1112554","label":"AWS"},{"number":"18779033","label":"SPTs"},{"number":"479986","label":"Signal"}]},"geometry":{"type":"Point","coordinates":[-4.0208635,55.9670052]}},{"type":"Feature","properties":{"name":"CG12","type":"Signals","notes":"","section":"Cowlairs","equipment_number":[{"number":"1112584","label":"AWS"},{"number":"18779035","label":"SPTs"},{"number":"479995","label":"Signal"}]},"geometry":{"type":"Point","coordinates":[-4.0043254,55.9716151]}},{"type":"Feature","properties":{"name":"CG11","type":"Signals","notes":"","section":"Cowlairs","equipment_number":[{"number":"1112522","label":"AWS"},{"number":"18779036","label":"SPTs"},{"number":"488320","label":"Signal"}]},"geometry":{"type":"Point","coordinates":[-4.0038104,55.9716061]}},{"type":"Feature","properties":{"name":"CG10","type":"Signals","notes":"","section":"Cowlairs","equipment_number":[{"number":"1112523","label":"AWS"},{"number":"18779037","label":"SPTs"},{"number":"480001","label":"Signal"}]},"geometry":{"type":"Point","coordinates":[-3.9881854,55.9765596]}},{"type":"Feature","properties":{"name":"CG9","type":"Signals","notes":"","section":"Cowlairs","equipment_number":[{"number":"1112524","label":"AWS"},{"number":"18779038","label":"SPTs"},{"number":"488326","label":"Signal"}]},"geometry":{"type":"Point","coordinates":[-3.9875014,55.9766587]}},{"type":"Feature","properties":{"name":"CG8","type":"Signals","notes":"","section":"Cowlairs","equipment_number":[{"number":"1112525","label":"AWS"},{"number":"18779039","label":"SPTs"},{"number":"479999","label":"Signal"}]},"geometry":{"type":"Point","coordinates":[-3.9713965,55.9809802]}},{"type":"Feature","properties":{"name":"CG7","type":"Signals","notes":"","section":"Cowlairs","equipment_number":[{"number":"1112526","label":"AWS"},{"number":"18779040","label":"SPTs"},{"number":"479974","label":"Signal"}]},"geometry":{"type":"Point","coordinates":[-3.9705006,55.9810297]}},{"type":"Feature","properties":{"name":"CG5","type":"Signals","notes":"","section":"Cowlairs","equipment_number":[{"number":"1112528","label":"AWS"},{"number":"18779041","label":"SPTs"},{"number":"479982","label":"Signal"}]},"geometry":{"type":"Point","coordinates":[-3.952516,55.9812521]}},{"type":"Feature","properties":{"name":"CG4","type":"Signals","notes":"","section":"Cowlairs","equipment_number":[{"number":"1112536","label":"AWS"},{"number":"18779042","label":"SPTs"},{"number":"479973","label":"Signal"}]},"geometry":{"type":"Point","coordinates":[-3.9520118,55.9813294]}},{"type":"Feature","properties":{"name":"CG2","type":"Signals","notes":"","section":"Cowlairs","equipment_number":[{"number":"1112521","label":"AWS"}]},"geometry":{"type":"Point","coordinates":[-3.9302545,55.9827976]}},{"type":"Feature","properties":{"name":"CG3","type":"Signals","notes":"","section":"Cowlairs","equipment_number":[{"number":"1112530","label":"AWS"},{"number":"18779043","label":"SPTs"},{"number":"488324","label":"Signal"}]},"geometry":{"type":"Point","coordinates":[-3.9327999,55.9824959]}},{"type":"Feature","properties":{"name":"CG508","type":"Signals","notes":"","section":"Cowlairs","equipment_number":[{"number":"2580573","label":"SPTs"},{"number":"488380","label":"Position Light"}]},"geometry":{"type":"Point","coordinates":[-4.1841171,55.9145221]}}]}