{
  "type": "FeatureCollection",
  "features": [
    {
      "type": "Feature",
      "properties": {
        "name": "122B",
        "type": "Points",
        "notes": "",
        "section": "Sunnyside",
        "equipment_number": [
          {
            "number": "000000480994",
            "label": "Point"
          },
          {
            "number": "000003068599",
            "label": "Stretcher Bar"
          },
          {
            "number": "000003068602",
            "label": "Stretcher Bar"
          }
        ]
      },
      "geometry": {
        "type": "Point",
        "coordinates": [
          -3.9836015,
          55.8638917
        ]
      }
    },
    {
      "type": "Feature",
      "properties": {
        "name": "123",
        "type": "Points",
        "notes": "",
        "section": "Sunnyside",
        "equipment_number": [
          {
            "number": "000000488423",
            "label": "Point"
          },
          {
            "number": "000018816015",
            "label": "Stretcher Bar"
          },
          {
            "number": "000018816016",
            "label": "Stretcher Bar"
          }
        ]
      },
      "geometry": {
        "type": "Point",
        "coordinates": [
          -3.9838701,
          55.8639446
        ]
      }
    },
    {
      "type": "Feature",
      "properties": {
        "name": "122A",
        "type": "Points",
        "notes": "",
        "section": "Sunnyside",
        "equipment_number": [
          {
            "number": "000000480999",
            "label": "Point"
          },
          {
            "number": "000003068548",
            "label": "Stretcher Bar"
          }
        ]
      },
      "geometry": {
        "type": "Point",
        "coordinates": [
          -3.9845757,
          55.8639448
        ]
      }
    },
    {
      "type": "Feature",
      "properties": {
        "name": "126",
        "type": "Points",
        "notes": "",
        "section": "Sunnyside",
        "equipment_number": [
          {
            "number": "000000481018",
            "label": "Point"
          },
          {
            "number": "000017761185",
            "label": "Stretcher Bar"
          },
          {
            "number": "000017761186",
            "label": "Stretcher Bar"
          }
        ]
      },
      "geometry": {
        "type": "Point",
        "coordinates": [
          -3.9849884,
          55.863924
        ]
      }
    },
    {
      "type": "Feature",
      "properties": {
        "name": "127B",
        "type": "Points",
        "notes": "",
        "section": "Sunnyside",
        "equipment_number": [
          {
            "number": "000000471166",
            "label": "SO"
          },
          {
            "number": "000000481020",
            "label": "Point"
          },
          {
            "number": "000003069773",
            "label": "Stretcher Bar"
          },
          {
            "number": "000003069775",
            "label": "Stretcher Bar"
          }
        ]
      },
      "geometry": {
        "type": "Point",
        "coordinates": [
          -3.9852337,
          55.8639043
        ]
      }
    },
    {
      "type": "Feature",
      "properties": {
        "name": "127A",
        "type": "Points",
        "notes": "",
        "section": "Sunnyside",
        "equipment_number": [
          {
            "number": "000002921112",
            "label": "Point"
          },
          {
            "number": "000003069742",
            "label": "Stretcher Bar"
          },
          {
            "number": "000003069745",
            "label": "Stretcher Bar"
          },
          {
            "number": "000008429353",
            "label": "SO"
          }
        ]
      },
      "geometry": {
        "type": "Point",
        "coordinates": [
          -3.9861557,
          55.863861
        ]
      }
    },
    {
      "type": "Feature",
      "properties": {
        "name": "131",
        "type": "Points",
        "notes": "",
        "section": "Sunnyside",
        "equipment_number": [
          {
            "number": "000000481076",
            "label": "Point"
          },
          {
            "number": "000003071127",
            "label": "Stretcher Bar"
          }
        ]
      },
      "geometry": {
        "type": "Point",
        "coordinates": [
          -4.0300055,
          55.8674066
        ]
      }
    },
    {
      "type": "Feature",
      "properties": {
        "name": "137B",
        "type": "Points",
        "notes": "",
        "section": "Sunnyside",
        "equipment_number": [
          {
            "number": "000000470448",
            "label": "SO"
          },
          {
            "number": "000000481026",
            "label": "Point"
          }
        ]
      },
      "geometry": {
        "type": "Point",
        "coordinates": [
          -4.0306381,
          55.8676334
        ]
      }
    },
    {
      "type": "Feature",
      "properties": {
        "name": "137A",
        "type": "Points",
        "notes": "",
        "section": "Sunnyside",
        "equipment_number": [
          {
            "number": "000000470427",
            "label": "SO"
          },
          {
            "number": "000000480976",
            "label": "Point"
          },
          {
            "number": "000019371580",
            "label": "Stretcher Bar"
          }
        ]
      },
      "geometry": {
        "type": "Point",
        "coordinates": [
          -4.0317363,
          55.8679457
        ]
      }
    },
    {
      "type": "Feature",
      "properties": {
        "name": "142B",
        "type": "Points",
        "notes": "",
        "section": "Sunnyside",
        "equipment_number": [
          {
            "number": "000000481435",
            "label": "Point"
          },
          {
            "number": "000003074504",
            "label": "Stretcher Bar"
          },
          {
            "number": "000003074506",
            "label": "Stretcher Bar"
          },
          {
            "number": "000003074509",
            "label": "Stretcher Bar"
          },
          {
            "number": "000003074513",
            "label": "Stretcher Bar"
          },
          {
            "number": "000019540449",
            "label": "SO"
          }
        ]
      },
      "geometry": {
        "type": "Point",
        "coordinates": [
          -4.1422017,
          55.8533766
        ]
      }
    },
    {
      "type": "Feature",
      "properties": {
        "name": "142A",
        "type": "Points",
        "notes": "",
        "section": "Sunnyside",
        "equipment_number": [
          {
            "number": "000000481461",
            "label": "Point"
          },
          {
            "number": "000003074483",
            "label": "Stretcher Bar"
          },
          {
            "number": "000003074486",
            "label": "Stretcher Bar"
          },
          {
            "number": "000003074489",
            "label": "Stretcher Bar"
          },
          {
            "number": "000003074492",
            "label": "Stretcher Bar"
          },
          {
            "number": "000019561640",
            "label": "SO"
          }
        ]
      },
      "geometry": {
        "type": "Point",
        "coordinates": [
          -4.1435645,
          55.853369
        ]
      }
    },
    {
      "type": "Feature",
      "properties": {
        "name": "143A",
        "type": "Points",
        "notes": "",
        "section": "Sunnyside",
        "equipment_number": [
          {
            "number": "000000481395",
            "label": "Point"
          },
          {
            "number": "000003074682",
            "label": "Stretcher Bar"
          },
          {
            "number": "000003074685",
            "label": "Stretcher Bar"
          }
        ]
      },
      "geometry": {
        "type": "Point",
        "coordinates": [
          -4.1442949,
          55.8534095
        ]
      }
    },
    {
      "type": "Feature",
      "properties": {
        "name": "144B",
        "type": "Points",
        "notes": "",
        "section": "Sunnyside",
        "equipment_number": [
          {
            "number": "000000481447",
            "label": "Point"
          },
          {
            "number": "000003074845",
            "label": "Stretcher Bar"
          },
          {
            "number": "000003074847",
            "label": "Stretcher Bar"
          },
          {
            "number": "000003074850",
            "label": "Stretcher Bar"
          },
          {
            "number": "000003074853",
            "label": "Stretcher Bar"
          },
          {
            "number": "000019540469",
            "label": "SO"
          }
        ]
      },
      "geometry": {
        "type": "Point",
        "coordinates": [
          -4.1440732,
          55.8533823
        ]
      }
    },
    {
      "type": "Feature",
      "properties": {
        "name": "144A",
        "type": "Points",
        "notes": "",
        "section": "Sunnyside",
        "equipment_number": [
          {
            "number": "000000481401",
            "label": "Point"
          },
          {
            "number": "000003074824",
            "label": "Stretcher Bar"
          },
          {
            "number": "000003074826",
            "label": "Stretcher Bar"
          }
        ]
      },
      "geometry": {
        "type": "Point",
        "coordinates": [
          -4.1453463,
          55.8533723
        ]
      }
    },
    {
      "type": "Feature",
      "properties": {
        "name": "152B",
        "type": "Points",
        "notes": "",
        "section": "Sunnyside",
        "equipment_number": [
          {
            "number": "000000481415",
            "label": "Point"
          },
          {
            "number": "000003077027",
            "label": "Stretcher Bar"
          },
          {
            "number": "000003077033",
            "label": "Stretcher Bar"
          }
        ]
      },
      "geometry": {
        "type": "Point",
        "coordinates": [
          -4.1570847,
          55.8535611
        ]
      }
    },
    {
      "type": "Feature",
      "properties": {
        "name": "152A",
        "type": "Points",
        "notes": "",
        "section": "Sunnyside",
        "equipment_number": [
          {
            "number": "000000481445",
            "label": "Point"
          },
          {
            "number": "000003076991",
            "label": "Stretcher Bar"
          },
          {
            "number": "000003076993",
            "label": "Stretcher Bar"
          },
          {
            "number": "000003076997",
            "label": "Stretcher Bar"
          },
          {
            "number": "000007989235",
            "label": "Stretcher Bar"
          },
          {
            "number": "000019542086",
            "label": "SO"
          }
        ]
      },
      "geometry": {
        "type": "Point",
        "coordinates": [
          -4.1584697,
          55.8536224
        ]
      }
    },
    {
      "type": "Feature",
      "properties": {
        "name": "153B",
        "type": "Points",
        "notes": "",
        "section": "Sunnyside",
        "equipment_number": [
          {
            "number": "000000470392",
            "label": "SO"
          },
          {
            "number": "000000481502",
            "label": "Point"
          },
          {
            "number": "000003077284",
            "label": "Stretcher Bar"
          },
          {
            "number": "000003077288",
            "label": "Stretcher Bar"
          },
          {
            "number": "000003077292",
            "label": "Stretcher Bar"
          },
          {
            "number": "000003077295",
            "label": "Stretcher Bar"
          }
        ]
      },
      "geometry": {
        "type": "Point",
        "coordinates": [
          -4.1614197,
          55.853663
        ]
      }
    },
    {
      "type": "Feature",
      "properties": {
        "name": "153A",
        "type": "Points",
        "notes": "",
        "section": "Sunnyside",
        "equipment_number": [
          {
            "number": "000000481517",
            "label": "Point"
          },
          {
            "number": "000003077244",
            "label": "Stretcher Bar"
          },
          {
            "number": "000003077247",
            "label": "Stretcher Bar"
          }
        ]
      },
      "geometry": {
        "type": "Point",
        "coordinates": [
          -4.1629744,
          55.8537311
        ]
      }
    },
    {
      "type": "Feature",
      "properties": {
        "name": "157",
        "type": "Points",
        "notes": "",
        "section": "Sunnyside",
        "equipment_number": [
          {
            "number": "000000470387",
            "label": "SO"
          },
          {
            "number": "000000481495",
            "label": "Point"
          },
          {
            "number": "000007989234",
            "label": "Stretcher Bar"
          },
          {
            "number": "000008429359",
            "label": "SO"
          },
          {
            "number": "000019000017",
            "label": "Stretcher Bar"
          },
          {
            "number": "000019000034",
            "label": "Stretcher Bar"
          },
          {
            "number": "000019000035",
            "label": "Stretcher Bar"
          },
          {
            "number": "000019000036",
            "label": "Stretcher Bar"
          }
        ]
      },
      "geometry": {
        "type": "Point",
        "coordinates": [
          -4.2196009,
          55.8564625
        ]
      }
    },
    {
      "type": "Feature",
      "properties": {
        "name": "158B",
        "type": "Points",
        "notes": "",
        "section": "Sunnyside",
        "equipment_number": [
          {
            "number": "000000470359",
            "label": "SO"
          },
          {
            "number": "000000481491",
            "label": "Point"
          },
          {
            "number": "000007989233",
            "label": "Stretcher Bar"
          },
          {
            "number": "000018998624",
            "label": "Stretcher Bar"
          },
          {
            "number": "000018998625",
            "label": "Stretcher Bar"
          },
          {
            "number": "000019000018",
            "label": "Stretcher Bar"
          },
          {
            "number": "000019000039",
            "label": "Stretcher Bar"
          }
        ]
      },
      "geometry": {
        "type": "Point",
        "coordinates": [
          -4.220835,
          55.8564223
        ]
      }
    },
    {
      "type": "Feature",
      "properties": {
        "name": "158A",
        "type": "Points",
        "notes": "",
        "section": "Sunnyside",
        "equipment_number": [
          {
            "number": "000000470338",
            "label": "SO"
          },
          {
            "number": "000000481372",
            "label": "Point"
          }
        ]
      },
      "geometry": {
        "type": "Point",
        "coordinates": [
          -4.2225511,
          55.8564752
        ]
      }
    },
    {
      "type": "Feature",
      "properties": {
        "name": "156",
        "type": "Points",
        "notes": "",
        "section": "Sunnyside",
        "equipment_number": [
          {
            "number": "000000493219",
            "label": "SO"
          },
          {
            "number": "000001720654",
            "label": "Point"
          },
          {
            "number": "000003077801",
            "label": "Stretcher Bar"
          },
          {
            "number": "000003077804",
            "label": "Stretcher Bar"
          },
          {
            "number": "000003077806",
            "label": "Stretcher Bar"
          },
          {
            "number": "000003077809",
            "label": "Stretcher Bar"
          },
          {
            "number": "000008429357",
            "label": "SO"
          }
        ]
      },
      "geometry": {
        "type": "Point",
        "coordinates": [
          -4.2186103,
          55.8565904
        ]
      }
    },
    {
      "type": "Feature",
      "properties": {
        "name": "146A GF",
        "type": "Points",
        "notes": "",
        "section": "Sunnyside"
      },
      "geometry": {
        "type": "Point",
        "coordinates": [
          -4.1543876,
          55.8535221
        ]
      }
    },
    {
      "type": "Feature",
      "properties": {
        "name": "146B GF",
        "type": "Points",
        "notes": "",
        "section": "Sunnyside"
      },
      "geometry": {
        "type": "Point",
        "coordinates": [
          -4.1533952,
          55.8534604
        ]
      }
    },
    {
      "type": "Feature",
      "properties": {
        "name": "Workshops GF",
        "type": "Points",
        "notes": "",
        "section": "Sunnyside"
      },
      "geometry": {
        "type": "Point",
        "coordinates": [
          -4.1568828,
          55.8535558
        ]
      }
    }
  ]
}
