{"type":"FeatureCollection","features":[{"type":"Feature","properties":{"name":"154(1) T","type":"Tracks","notes":"","colour":"#0288d1","section":"Sunnyside","equipment_number":"000000482678"},"geometry":{"type":"LineString","coordinates":[[-4.2186689,55.8565303],[-4.2176929,55.8565982],[-4.2170089,55.8566358],[-4.2119202,55.8567874],[-4.2110699,55.856807],[-4.2078647,55.8568627],[-4.2071244,55.8568627],[-4.2067435,55.8568567],[-4.2059751,55.8568115],[-4.205165,55.8567212],[-4.1998328,55.8559888],[-4.1949995,55.8553114]]}},{"type":"Feature","properties":{"name":"47 T","type":"Tracks","notes":"","colour":"#a52714","section":"Sunnyside","equipment_number":"000003180653"},"geometry":{"type":"LineString","coordinates":[[-3.9509102,55.8667258],[-3.9513099,55.8666122],[-3.9517814,55.8664885],[-3.952173,55.8663997],[-3.9525968,55.8663079],[-3.9530044,55.8662282],[-3.9536294,55.8661243]]}},{"type":"Feature","properties":{"name":"49(1) T","type":"Tracks","notes":"","colour":"#7cb342","section":"Sunnyside","equipment_number":"000003180654"},"geometry":{"type":"LineString","coordinates":[[-3.9536294,55.8661243],[-3.9542061,55.8660415],[-3.9548015,55.8659753],[-3.9554667,55.8659196],[-3.9561855,55.865882],[-3.9569419,55.8658594],[-3.9575052,55.8658519],[-3.9580846,55.8658534],[-3.9589938,55.8658745],[-3.9598146,55.8659181],[-3.9607346,55.8659678],[-3.9618826,55.86604],[-3.9638138,55.8661544]]}},{"type":"Feature","properties":{"name":"49(2) T","type":"Tracks","notes":"","colour":"#a52714","section":"Sunnyside","equipment_number":"000003180655"},"geometry":{"type":"LineString","coordinates":[[-3.9638138,55.8661544],[-3.9641323,55.8661721],[-3.9647465,55.8661901],[-3.9653447,55.8662007],[-3.9658409,55.8661977],[-3.9663129,55.8661811],[-3.9668521,55.866154],[-3.9673161,55.8661134],[-3.9679276,55.8660547],[-3.9685767,55.8659734],[-3.969089,55.8658967],[-3.9696603,55.8657928],[-3.9700493,55.86571],[-3.9704462,55.8656272],[-3.9713099,55.8654105],[-3.9722782,55.8651652],[-3.9726242,55.8650824],[-3.973166,55.8649575],[-3.9737346,55.8648416],[-3.9742657,55.8647392],[-3.9748397,55.8646369],[-3.9754754,55.8645391],[-3.9763444,55.8644277],[-3.9770713,55.8643494],[-3.9775353,55.8643148],[-3.9780047,55.8642802],[-3.9786484,55.8642471]]}},{"type":"Feature","properties":{"name":"49(3) T","type":"Tracks","notes":"","colour":"#7cb342","section":"Sunnyside","equipment_number":"000003180657"},"geometry":{"type":"LineString","coordinates":[[-3.980186,55.8642086],[-3.9795946,55.8642207],[-3.9790796,55.8642342],[-3.9786484,55.8642471]]}},{"type":"Feature","properties":{"name":"55 T","type":"Tracks","notes":"","colour":"#a52714","section":"Sunnyside","equipment_number":"000000482675"},"geometry":{"type":"LineString","coordinates":[[-3.9828895,55.8640903],[-3.9824121,55.8641234],[-3.9818676,55.8641535],[-3.9815323,55.8641715],[-3.9810522,55.8641911],[-3.980186,55.8642086]]}},{"type":"Feature","properties":{"name":"51 T","type":"Tracks","notes":"","colour":"#ffd600","section":"Sunnyside","equipment_number":"000000482669"},"geometry":{"type":"LineString","coordinates":[[-3.9809496,55.864073],[-3.9813439,55.8640609],[-3.9825214,55.8639924]]}},{"type":"Feature","properties":{"name":"52 T","type":"Tracks","notes":"","colour":"#0288d1","section":"Sunnyside","equipment_number":"000000482677"},"geometry":{"type":"LineString","coordinates":[[-3.982512,55.8639939],[-3.9830833,55.8639623]]}},{"type":"Feature","properties":{"name":"53 T","type":"Tracks","notes":"","colour":"#ffd600","section":"Sunnyside","equipment_number":"000000482686"},"geometry":{"type":"LineString","coordinates":[[-3.9838701,55.8639446],[-3.983554,55.8639458],[-3.9833502,55.8639525],[-3.9830833,55.8639623]]}},{"type":"Feature","properties":{"name":"57 T","type":"Tracks","notes":"","colour":"#a52714","section":"Sunnyside","equipment_number":"000000482590"},"geometry":{"type":"LineString","coordinates":[[-3.9835312,55.8639029],[-3.9837311,55.8639059],[-3.9842809,55.8639337],[-3.9846229,55.8639465],[-3.9842125,55.8639465],[-3.9838701,55.8639446],[-3.9842125,55.8639465],[-3.9846229,55.8639465],[-3.9839979,55.864003],[-3.9846229,55.8639465],[-3.9851647,55.8639074],[-3.9854598,55.8638878],[-3.9857065,55.8638863],[-3.9854584,55.8638863],[-3.9859761,55.8638457],[-3.9864991,55.8638065]]}},{"type":"Feature","properties":{"name":"56 T","type":"Tracks","notes":"","colour":"#7cb342","section":"Sunnyside","equipment_number":"000000482674"},"geometry":{"type":"LineString","coordinates":[[-3.9839979,55.864003],[-3.9828895,55.8640903]]}},{"type":"Feature","properties":{"name":"63 T","type":"Tracks","notes":"","colour":"#7cb342","section":"Sunnyside","equipment_number":"000000482587"},"geometry":{"type":"LineString","coordinates":[[-4.0059632,55.8646903],[-4.0056353,55.8645864],[-4.005351,55.864504],[-4.0046284,55.8642949],[-4.0040866,55.8641414],[-4.0035234,55.8639938],[-4.0027281,55.8638012],[-4.001973,55.8636356],[-4.0013575,55.8635032],[-4.0006668,55.863379],[-3.9999895,55.8632721],[-3.9992734,55.8631848],[-3.998694,55.8631306],[-3.9982743,55.8631028],[-3.9977204,55.8630757],[-3.9970203,55.8630622],[-3.9964236,55.8630682],[-3.9957785,55.8630938],[-3.9952554,55.8631246],[-3.9948424,55.8631577],[-3.9940967,55.8632134],[-3.9933752,55.8632676],[-3.9925612,55.8633308],[-3.9919148,55.8633805],[-3.9914078,55.8634257],[-3.990756,55.8634738],[-3.9897542,55.8635491],[-3.9890931,55.8636055],[-3.9886478,55.8636379],[-3.9876889,55.8637139],[-3.9864991,55.8638065]]}},{"type":"Feature","properties":{"name":"65 T","type":"Tracks","notes":"","colour":"#a52714","section":"Sunnyside","equipment_number":"000000482585"},"geometry":{"type":"LineString","coordinates":[[-4.0086353,55.8654856],[-4.0059632,55.8646903]]}},{"type":"Feature","properties":{"name":"67 T","type":"Tracks","notes":"","colour":"#7cb342","section":"Sunnyside","equipment_number":"000000482583"},"geometry":{"type":"LineString","coordinates":[[-4.0264778,55.8668639],[-4.026042,55.8669008],[-4.0254868,55.866967],[-4.0252306,55.8670107],[-4.0224813,55.8675126],[-4.0212422,55.8677429],[-4.0205555,55.8678437],[-4.0199708,55.8678994],[-4.0194826,55.867925],[-4.0189274,55.867937],[-4.0184768,55.8679265],[-4.0179109,55.8678903],[-4.0172564,55.8678317],[-4.016677,55.8677504],[-4.0161755,55.8676616],[-4.0157409,55.8675728],[-4.0153252,55.8674765],[-4.0146868,55.8673034],[-4.0133726,55.8669091],[-4.0104302,55.8660271],[-4.0086353,55.8654856]]}},{"type":"Feature","properties":{"name":"69 T","type":"Tracks","notes":"","colour":"#a52714","section":"Sunnyside","equipment_number":"000000482580"},"geometry":{"type":"LineString","coordinates":[[-4.0286876,55.8670201],[-4.0285173,55.866987],[-4.0280318,55.8669079],[-4.0276483,55.8668696],[-4.0273747,55.8668575],[-4.0270327,55.8668507],[-4.0267256,55.866856],[-4.0264778,55.8668639]]}},{"type":"Feature","properties":{"name":"71 T","type":"Tracks","notes":"","colour":"#7cb342","section":"Sunnyside","equipment_number":"000000482579"},"geometry":{"type":"LineString","coordinates":[[-4.0295402,55.8672466],[-4.0293511,55.8671856],[-4.0291191,55.8671247],[-4.0288831,55.8670622],[-4.0286876,55.8670201]]}},{"type":"Feature","properties":{"name":"75 T","type":"Tracks","notes":"","colour":"#a52714","section":"Sunnyside","equipment_number":"000000482578"},"geometry":{"type":"LineString","coordinates":[[-4.0288992,55.8665031],[-4.0289354,55.8665942],[-4.0289836,55.8666912],[-4.0290507,55.8667861],[-4.0291379,55.8668907],[-4.0292358,55.8669832],[-4.0293565,55.8670795],[-4.0294866,55.8671668],[-4.0299171,55.867379],[-4.0295402,55.8672466],[-4.0299144,55.867379],[-4.0301893,55.8674806],[-4.0304897,55.8675867],[-4.0307351,55.8676672],[-4.0309484,55.8677327],[-4.0311013,55.8677854],[-4.030947,55.8677312],[-4.0312877,55.8678155],[-4.0315425,55.8678727],[-4.0317638,55.8679163],[-4.0320782,55.8679699],[-4.0325797,55.8680384]]}},{"type":"Feature","properties":{"name":"99 T","type":"Tracks","notes":"","colour":"#7cb342","section":"Sunnyside","equipment_number":"000000482576"},"geometry":{"type":"LineString","coordinates":[[-4.0467955,55.8660093],[-4.0434481,55.8663886],[-4.0422841,55.8665602],[-4.0409047,55.8667996],[-4.0403052,55.866932],[-4.0368291,55.8677831],[-4.0363946,55.867881],[-4.0361371,55.8679291],[-4.0355282,55.8680239],[-4.0349676,55.8680886],[-4.0342273,55.8681187],[-4.0334683,55.8681142],[-4.0327629,55.86806],[-4.0325797,55.8680384]]}},{"type":"Feature","properties":{"name":"107(1) T","type":"Tracks","notes":"","colour":"#a52714","section":"Sunnyside","equipment_number":"000000482644"},"geometry":{"type":"LineString","coordinates":[[-4.0681161,55.8622583],[-4.0667053,55.8627128],[-4.0643879,55.8634564],[-4.0635027,55.8637123],[-4.0619149,55.8641096],[-4.0601553,55.8644498],[-4.058766,55.8646846],[-4.0551021,55.865082],[-4.0495231,55.8657111],[-4.0467955,55.8660093]]}},{"type":"Feature","properties":{"name":"107(2) T","type":"Tracks","notes":"","colour":"#7cb342","section":"Sunnyside","equipment_number":"000000482643"},"geometry":{"type":"LineString","coordinates":[[-4.0893315,55.858641],[-4.0833726,55.8586025],[-4.082466,55.8586055],[-4.0817311,55.8586296],[-4.0810283,55.8586717],[-4.0803202,55.8587379],[-4.0795853,55.8588313],[-4.0791508,55.8588945],[-4.0783944,55.859042],[-4.0776809,55.8591895],[-4.0767958,55.8594334],[-4.0745159,55.860183],[-4.0704819,55.8614956],[-4.0681161,55.8622583]]}},{"type":"Feature","properties":{"name":"107(3) T","type":"Tracks","notes":"","colour":"#a52714","section":"Sunnyside","equipment_number":"000000482642"},"geometry":{"type":"LineString","coordinates":[[-4.1104117,55.8596209],[-4.1096312,55.8596947],[-4.1088265,55.8597564],[-4.1082713,55.8597895],[-4.1077536,55.8598121],[-4.1068765,55.8598302],[-4.1061898,55.8598332],[-4.1052618,55.8598181],[-4.1043901,55.859773],[-4.1038778,55.8597278],[-4.1031429,55.8596676],[-4.1024402,55.8595803],[-4.1016181,55.8594787],[-4.1005338,55.8593045],[-4.0995192,55.8590971],[-4.0983847,55.858918],[-4.0974432,55.8587975],[-4.0967432,55.8587403],[-4.0961316,55.8587027],[-4.0956381,55.8586906],[-4.0945679,55.8586756],[-4.0920949,55.858653],[-4.0893315,55.858641]]}},{"type":"Feature","properties":{"name":"111 T","type":"Tracks","notes":"","colour":"#7cb342","section":"Sunnyside","equipment_number":"000000482638"},"geometry":{"type":"LineString","coordinates":[[-4.1304385,55.8547541],[-4.1262837,55.8568783],[-4.1256454,55.8571959],[-4.1251814,55.8573977],[-4.1244679,55.8576852],[-4.1239288,55.8578719],[-4.1233065,55.8580706],[-4.1223919,55.8583099],[-4.1214799,55.8585071],[-4.1207584,55.8586336],[-4.1199162,55.858745],[-4.1189559,55.8588368],[-4.1179716,55.8589331],[-4.1156783,55.8591409],[-4.1134896,55.8593486],[-4.1104117,55.8596209]]}},{"type":"Feature","properties":{"name":"115 T","type":"Tracks","notes":"","colour":"#a52714","section":"Sunnyside","equipment_number":"000000482696"},"geometry":{"type":"LineString","coordinates":[[-4.1328752,55.853924],[-4.1324997,55.8540278],[-4.1319284,55.854195],[-4.1315328,55.8543244],[-4.1304385,55.8547541]]}},{"type":"Feature","properties":{"name":"117 T","type":"Tracks","notes":"","colour":"#7cb342","section":"Sunnyside","equipment_number":"000000482705"},"geometry":{"type":"LineString","coordinates":[[-4.1387897,55.8532855],[-4.1381795,55.8532825],[-4.1375666,55.8532923],[-4.1372488,55.8533028],[-4.1368344,55.8533231],[-4.1362765,55.8533623],[-4.1358326,55.8534067],[-4.1354597,55.8534473],[-4.1350883,55.8534955],[-4.134635,55.8535618],[-4.1339564,55.8536702],[-4.1335782,55.8537597],[-4.1328752,55.853924]]}},{"type":"Feature","properties":{"name":"119 T","type":"Tracks","notes":"","colour":"#a52714","section":"Sunnyside","equipment_number":"000000482694"},"geometry":{"type":"LineString","coordinates":[[-4.1419762,55.853341],[-4.1399002,55.8533034],[-4.1387736,55.8532853]]}},{"type":"Feature","properties":{"name":"123 T","type":"Tracks","notes":"","colour":"#7cb342","section":"Sunnyside","equipment_number":"000000482692"},"geometry":{"type":"LineString","coordinates":[[-4.1453833,55.8533718],[-4.1442045,55.8533778],[-4.1465085,55.8534185],[-4.1442031,55.8533778],[-4.1435138,55.853368],[-4.1429358,55.8533756],[-4.1435151,55.8533695],[-4.1419762,55.853341]]}},{"type":"Feature","properties":{"name":"133 T","type":"Tracks","notes":"","colour":"#a52714","section":"Sunnyside","equipment_number":"000000482690"},"geometry":{"type":"LineString","coordinates":[[-4.1465085,55.8534185],[-4.152371,55.8535201],[-4.1563949,55.8535898]]}},{"type":"Feature","properties":{"name":"141 T","type":"Tracks","notes":"","colour":"#7cb342","section":"Sunnyside","equipment_number":"000000482639"},"geometry":{"type":"LineString","coordinates":[[-4.1564045,55.8535904],[-4.1586147,55.8536234],[-4.158329,55.853619],[-4.1577255,55.8535881]]}},{"type":"Feature","properties":{"name":"143 T","type":"Tracks","notes":"","colour":"#a52714","section":"Sunnyside","equipment_number":"000000482676"},"geometry":{"type":"LineString","coordinates":[[-4.1613755,55.8536713],[-4.1586147,55.8536234]]}},{"type":"Feature","properties":{"name":"145 T","type":"Tracks","notes":"","colour":"#7cb342","section":"Sunnyside","equipment_number":"000000482646"},"geometry":{"type":"LineString","coordinates":[[-4.1631309,55.8537024],[-4.1613755,55.8536713],[-4.1618944,55.8536798],[-4.1622404,55.8537039]]}},{"type":"Feature","properties":{"name":"151 T","type":"Tracks","notes":"","colour":"#a52714","section":"Sunnyside","equipment_number":"000000482671"},"geometry":{"type":"LineString","coordinates":[[-4.1835579,55.8547705],[-4.1804654,55.8548631],[-4.1792798,55.8548857],[-4.1787863,55.8548872],[-4.1779387,55.8548781],[-4.1772547,55.8548495],[-4.1762194,55.8547803],[-4.1753557,55.8547005],[-4.1744974,55.8545936],[-4.1731081,55.8543843],[-4.1721478,55.8542338],[-4.1715309,55.8541359],[-4.1707665,55.8540275],[-4.1698143,55.8539176],[-4.1689989,55.8538468],[-4.168272,55.8538122],[-4.1668692,55.853761],[-4.1657829,55.8537475],[-4.1631309,55.8537024]]}},{"type":"Feature","properties":{"name":"153(1) T","type":"Tracks","notes":"","colour":"#7cb342","section":"Sunnyside","equipment_number":"000000482695"},"geometry":{"type":"LineString","coordinates":[[-4.1989673,55.8558396],[-4.1942117,55.8551712],[-4.192066,55.8548897],[-4.191551,55.8548325],[-4.1903949,55.8547331],[-4.1893489,55.8546744],[-4.1885791,55.8546533],[-4.1874284,55.8546578],[-4.1835579,55.8547705]]}},{"type":"Feature","properties":{"name":"153(2) T","type":"Tracks","notes":"","colour":"#a52714","section":"Sunnyside","equipment_number":"000000482697"},"geometry":{"type":"LineString","coordinates":[[-4.2152564,55.8566574],[-4.2131321,55.8567168],[-4.2115589,55.8567643],[-4.2074015,55.8568365],[-4.2068436,55.856826],[-4.2062509,55.8567989],[-4.2056769,55.8567507],[-4.2051458,55.856686],[-4.2017072,55.8562103],[-4.1989673,55.8558396]]}},{"type":"Feature","properties":{"name":"157 T","type":"Tracks","notes":"","colour":"#7cb342","section":"Sunnyside","equipment_number":"000000482702"},"geometry":{"type":"LineString","coordinates":[[-4.2183161,55.8565264],[-4.2175168,55.8565761],[-4.2169186,55.8566092],[-4.2152564,55.8566574]]}},{"type":"Feature","properties":{"name":"165 T","type":"Tracks","notes":"","colour":"#a52714","section":"Sunnyside","equipment_number":"000000482701"},"geometry":{"type":"LineString","coordinates":[[-4.2183161,55.8565264],[-4.2200166,55.856409],[-4.2204833,55.8563879],[-4.2208749,55.8563789],[-4.2211995,55.8563834],[-4.2217466,55.856406],[-4.2228007,55.8564812],[-4.222436,55.8564541],[-4.2220229,55.8564376],[-4.2216474,55.856424]]}},{"type":"Feature","properties":{"name":"166 T","type":"Tracks","notes":"","colour":"#ffd600","section":"Sunnyside","equipment_number":"000000482700"},"geometry":{"type":"LineString","coordinates":[[-4.22277,55.8565792],[-4.2224776,55.8565416],[-4.2220726,55.8564994],[-4.2216944,55.8564648],[-4.2213001,55.8564362],[-4.2210158,55.8564257],[-4.2216474,55.856424],[-4.2210158,55.8564257],[-4.2206939,55.8564242],[-4.2204954,55.8564234],[-4.219959,55.8564452],[-4.219444,55.8564776],[-4.2192201,55.8565032],[-4.2188821,55.8565491],[-4.2192187,55.8565032],[-4.21944,55.8564784],[-4.2186689,55.8565303]]}},{"type":"Feature","properties":{"name":"154(2) T","type":"Tracks","notes":"","colour":"#ffd600","section":"Sunnyside","equipment_number":"000000482703"},"geometry":{"type":"LineString","coordinates":[[-4.1949995,55.8553114],[-4.1927457,55.8550019],[-4.1917747,55.8548875],[-4.1911176,55.8548228],[-4.1903639,55.8547626],[-4.1894305,55.8547129],[-4.1886902,55.8546873],[-4.1877139,55.8546843],[-4.1859919,55.8547279],[-4.1824835,55.8548288],[-4.1802975,55.8548935],[-4.1795626,55.8549131],[-4.1789296,55.8549206],[-4.1782376,55.8549146]]}},{"type":"Feature","properties":{"name":"152 T","type":"Tracks","notes":"","colour":"#0288d1","section":"Sunnyside","equipment_number":"000000482670"},"geometry":{"type":"LineString","coordinates":[[-4.1757074,55.8547643],[-4.1763055,55.854817],[-4.1769653,55.8548621],[-4.177762,55.8549028],[-4.1782376,55.8549146]]}},{"type":"Feature","properties":{"name":"148 T","type":"Tracks","notes":"","colour":"#ffd600","section":"Sunnyside","equipment_number":"000000482672"},"geometry":{"type":"LineString","coordinates":[[-4.1669114,55.8537976],[-4.1677617,55.8538186],[-4.1681224,55.8538299],[-4.1688211,55.8538691],[-4.1693911,55.8539105],[-4.1701461,55.8539843],[-4.1707845,55.8540618],[-4.1715382,55.8541694],[-4.1738141,55.8545262],[-4.1745047,55.8546256],[-4.1751029,55.8547024],[-4.1757074,55.8547643]]}},{"type":"Feature","properties":{"name":"146 T","type":"Tracks","notes":"","colour":"#0288d1","section":"Sunnyside","equipment_number":"000000482673"},"geometry":{"type":"LineString","coordinates":[[-4.1640113,55.8537481],[-4.1669114,55.8537976]]}},{"type":"Feature","properties":{"name":"144 T","type":"Tracks","notes":"","colour":"#ffd600","section":"Sunnyside","equipment_number":"000000482647"},"geometry":{"type":"LineString","coordinates":[[-4.1640113,55.8537481],[-4.1629078,55.8537303],[-4.1622404,55.8537039],[-4.1629078,55.8537295],[-4.1615747,55.8537054]]}},{"type":"Feature","properties":{"name":"134 T","type":"Tracks","notes":"","colour":"#0288d1","section":"Sunnyside","equipment_number":"000000482689"},"geometry":{"type":"LineString","coordinates":[[-4.1451389,55.8534275],[-4.1474174,55.8534787],[-4.1490093,55.8535096],[-4.1522803,55.853566],[-4.1541029,55.8535947],[-4.1561722,55.853618],[-4.1589992,55.8536609],[-4.1615747,55.8537054]]}},{"type":"Feature","properties":{"name":"122 T","type":"Tracks","notes":"","colour":"#ffd600","section":"Sunnyside","equipment_number":"000000482693"},"geometry":{"type":"LineString","coordinates":[[-4.1451377,55.8534892],[-4.1442432,55.8534116],[-4.1451389,55.8534275],[-4.1442445,55.8534109],[-4.1419727,55.8533717],[-4.14243,55.8533778],[-4.1429358,55.8533756]]}},{"type":"Feature","properties":{"name":"114(1) T","type":"Tracks","notes":"","colour":"#0288d1","section":"Sunnyside","equipment_number":"000000482637"},"geometry":{"type":"LineString","coordinates":[[-4.1254902,55.8572996],[-4.1261565,55.8569846],[-4.1268819,55.8566034],[-4.1298559,55.8550642],[-4.1303476,55.854833],[-4.1310405,55.854549],[-4.1320534,55.8541904],[-4.1327207,55.8539975],[-4.1334042,55.8538287],[-4.1343151,55.8536507],[-4.1348516,55.8535641],[-4.1355342,55.85347],[-4.1360546,55.8534136],[-4.1365467,55.8533706],[-4.1371851,55.8533345],[-4.1376961,55.8533164],[-4.1383398,55.8533104],[-4.1389057,55.8533157],[-4.1397171,55.85333],[-4.1419727,55.8533717]]}},{"type":"Feature","properties":{"name":"114(2) T","type":"Tracks","notes":"","colour":"#ffd600","section":"Sunnyside","equipment_number":"000000482636"},"geometry":{"type":"LineString","coordinates":[[-4.1027501,55.859658],[-4.1034059,55.8597243],[-4.1040348,55.8597777],[-4.1045242,55.8598124],[-4.1051491,55.859844],[-4.1059538,55.8598651],[-4.1065412,55.8598681],[-4.1072788,55.8598591],[-4.1077669,55.8598455],[-4.1082712,55.8598214],[-4.1088559,55.8597868],[-4.1098644,55.8597055],[-4.1106315,55.8596363],[-4.1118171,55.8595264],[-4.1153469,55.8592028],[-4.1175758,55.8589995],[-4.1196035,55.8588084],[-4.1202607,55.8587331],[-4.1210036,55.8586232],[-4.1216098,55.8585178],[-4.1224601,55.8583266],[-4.1231467,55.8581505],[-4.1239836,55.8578961],[-4.1245281,55.8577004],[-4.1251879,55.857437],[-4.1254902,55.8572996]]}},{"type":"Feature","properties":{"name":"108(1) T","type":"Tracks","notes":"","colour":"#0288d1","section":"Sunnyside","equipment_number":"000000482632"},"geometry":{"type":"LineString","coordinates":[[-4.0848091,55.8586447],[-4.0867014,55.8586515],[-4.0897175,55.8586764],[-4.0938964,55.8587004],[-4.0957981,55.8587215],[-4.0964579,55.8587516],[-4.097107,55.8587998],[-4.0977239,55.85886],[-4.0983623,55.8589458],[-4.0993788,55.8591159],[-4.1005536,55.8593507],[-4.1017016,55.8595193],[-4.102399,55.8596172],[-4.1027501,55.859658]]}},{"type":"Feature","properties":{"name":"108(2) T","type":"Tracks","notes":"","colour":"#ffd600","section":"Sunnyside","equipment_number":"000000482640"},"geometry":{"type":"LineString","coordinates":[[-4.0675888,55.8624623],[-4.074289,55.8602933],[-4.0763436,55.8596159],[-4.0770651,55.8593976],[-4.077792,55.859208],[-4.0784357,55.8590665],[-4.079058,55.858949],[-4.0798224,55.8588301],[-4.080678,55.8587338],[-4.0813566,55.8586826],[-4.081877,55.8586555],[-4.0825904,55.8586374],[-4.0831188,55.8586329],[-4.0848091,55.8586447]]}},{"type":"Feature","properties":{"name":"108(3) T","type":"Tracks","notes":"","colour":"#0288d1","section":"Sunnyside","equipment_number":"000000482649"},"geometry":{"type":"LineString","coordinates":[[-4.0484472,55.8658757],[-4.0526842,55.8653958],[-4.0583303,55.8647636],[-4.0592664,55.8646462],[-4.0604465,55.8644551],[-4.0617769,55.8641871],[-4.0632012,55.8638395],[-4.063802,55.8636829],[-4.0646523,55.863424],[-4.0675888,55.8624623]]}},{"type":"Feature","properties":{"name":"102 T","type":"Tracks","notes":"","colour":"#ffd600","section":"Sunnyside","equipment_number":"000000482645"},"geometry":{"type":"LineString","coordinates":[[-4.0351829,55.8680956],[-4.0362289,55.8679518],[-4.0369236,55.8678074],[-4.0394127,55.8671752],[-4.040786,55.8668652],[-4.0418589,55.866662],[-4.0428996,55.866495],[-4.0439081,55.866358],[-4.0484472,55.8658757]]}},{"type":"Feature","properties":{"name":"98 T","type":"Tracks","notes":"","colour":"#0288d1","section":"Sunnyside","equipment_number":"000000482567"},"geometry":{"type":"LineString","coordinates":[[-4.0319888,55.8679865],[-4.0326325,55.8680783],[-4.0331341,55.8681235],[-4.033582,55.8681505],[-4.033979,55.8681581],[-4.0344162,55.8681475],[-4.0348131,55.8681265],[-4.0351829,55.8680956]]}},{"type":"Feature","properties":{"name":"96 T","type":"Tracks","notes":"","colour":"#ffd600","section":"Sunnyside","equipment_number":"000000482559"},"geometry":{"type":"LineString","coordinates":[[-4.0319888,55.8679865],[-4.0315368,55.8679007],[-4.0311013,55.8677854],[-4.0315395,55.8679037],[-4.0311613,55.8678187],[-4.0308153,55.8677254],[-4.0304988,55.8676253],[-4.0302279,55.8675305],[-4.0299382,55.8674244]]}},{"type":"Feature","properties":{"name":"68(1) T","type":"Tracks","notes":"","colour":"#0288d1","section":"Sunnyside","equipment_number":"000000482582"},"geometry":{"type":"LineString","coordinates":[[-4.0151807,55.8674767],[-4.015693,55.8676016],[-4.0164547,55.8677521],[-4.0171119,55.8678455],[-4.0176966,55.8679087],[-4.0183752,55.8679568],[-4.0189385,55.8679689],[-4.0195822,55.8679568],[-4.020073,55.8679252],[-4.0206631,55.867862],[-4.0211513,55.8677913],[-4.0218513,55.8676679],[-4.0236431,55.8673413],[-4.0252846,55.8670282],[-4.0258666,55.86695],[-4.0262072,55.8669154],[-4.0266444,55.8668868],[-4.0270092,55.8668792],[-4.0274652,55.8668898],[-4.0279453,55.8669319],[-4.0285005,55.8670162],[-4.0287741,55.8670734],[-4.0294983,55.867269],[-4.0299382,55.8674244]]}},{"type":"Feature","properties":{"name":"68(2) T","type":"Tracks","notes":"","colour":"#ffd600","section":"Sunnyside","equipment_number":"000000482581"},"geometry":{"type":"LineString","coordinates":[[-4.0011247,55.8634945],[-4.0020286,55.8636811],[-4.0034046,55.8639972],[-4.0042602,55.8642229],[-4.00665,55.8649334],[-4.0102737,55.8660185],[-4.0138893,55.8671007],[-4.0147825,55.8673671],[-4.0151807,55.8674767]]}},{"type":"Feature","properties":{"name":"66 T","type":"Tracks","notes":"","colour":"#0288d1","section":"Sunnyside","equipment_number":"000000482594"},"geometry":{"type":"LineString","coordinates":[[-3.991762,55.8634261],[-3.9947097,55.8631988],[-3.9957558,55.8631341],[-3.9965095,55.863107],[-3.9970996,55.86311],[-3.9976387,55.8631221],[-3.9982368,55.8631477],[-3.9990737,55.8632124],[-3.9998354,55.8632907],[-4.0003397,55.8633584],[-4.0011247,55.8634945]]}},{"type":"Feature","properties":{"name":"64 T","type":"Tracks","notes":"","colour":"#ffd600","section":"Sunnyside","equipment_number":"000000482577"},"geometry":{"type":"LineString","coordinates":[[-3.9906118,55.8635171],[-3.991762,55.8634261]]}},{"type":"Feature","properties":{"name":"62 T","type":"Tracks","notes":"","colour":"#0288d1","section":"Sunnyside","equipment_number":"000000482588"},"geometry":{"type":"LineString","coordinates":[[-3.9893448,55.8636175],[-3.9906118,55.8635171]]}},{"type":"Feature","properties":{"name":"58 T","type":"Tracks","notes":"","colour":"#ffd600","section":"Sunnyside","equipment_number":"000000482589"},"geometry":{"type":"LineString","coordinates":[[-3.9862763,55.863856],[-3.9893448,55.8636175]]}},{"type":"Feature","properties":{"name":"54 T","type":"Tracks","notes":"","colour":"#0288d1","section":"Sunnyside","equipment_number":"000003141845"},"geometry":{"type":"LineString","coordinates":[[-3.9851573,55.8639417],[-3.986025,55.8638732],[-3.9857065,55.8638863],[-3.986025,55.8638732],[-3.9862763,55.863856]]}},{"type":"Feature","properties":{"name":"50(1) T","type":"Tracks","notes":"","colour":"#ffd600","section":"Sunnyside","equipment_number":"000003180660"},"geometry":{"type":"LineString","coordinates":[[-3.9771261,55.8643823],[-3.977971,55.8643176],[-3.9788696,55.8642769],[-3.9798003,55.8642498],[-3.9809617,55.8642258],[-3.9817502,55.8641957],[-3.983153,55.8641008],[-3.9851573,55.8639417]]}},{"type":"Feature","properties":{"name":"50(2) T","type":"Tracks","notes":"","colour":"#0288d1","section":"Sunnyside","equipment_number":"000003180661"},"geometry":{"type":"LineString","coordinates":[[-3.9616161,55.8660569],[-3.9639415,55.8661916],[-3.9648012,55.8662247],[-3.9654127,55.86623],[-3.9660846,55.8662202],[-3.9669496,55.8661758],[-3.9675612,55.8661246],[-3.9680319,55.8660795],[-3.9686502,55.8659952],[-3.9692389,55.8659019],[-3.9699309,55.8657724],[-3.9707651,55.8655835],[-3.9723972,55.8651719],[-3.9731254,55.8649996],[-3.9737772,55.8648634],[-3.9743606,55.8647535],[-3.9750204,55.8646398],[-3.9756547,55.8645458],[-3.9763173,55.8644622],[-3.9771261,55.8643823]]}},{"type":"Feature","properties":{"name":"315(1) T","type":"Tracks","notes":"","colour":"#7cb342","section":"Sunnyside","equipment_number":"000000482684"},"geometry":{"type":"LineString","coordinates":[[-4.2202252,55.8756161],[-4.2200267,55.8754761],[-4.2192596,55.87489],[-4.2186856,55.8742437],[-4.2183342,55.8738104],[-4.2179533,55.8732355],[-4.2177548,55.8727901],[-4.217618,55.872438],[-4.2175295,55.8721716]]}},{"type":"Feature","properties":{"name":"315(2) T","type":"Tracks","notes":"","colour":"#a52714","section":"Sunnyside","equipment_number":"000000482683"},"geometry":{"type":"LineString","coordinates":[[-4.2111335,55.864788],[-4.2113722,55.8650725],[-4.2115747,55.8652689],[-4.2117866,55.8654457],[-4.2121353,55.8656941],[-4.2124612,55.865892],[-4.2127831,55.866062],[-4.2131935,55.8662502],[-4.2135314,55.8663871],[-4.2153714,55.8671555],[-4.2155739,55.8672713],[-4.2157657,55.867388],[-4.2162887,55.8677417],[-4.2166937,55.8681315],[-4.2169485,55.8684693],[-4.2171148,55.8687207],[-4.217265,55.8690314],[-4.2173174,55.8692053],[-4.217379,55.8695108],[-4.2173978,55.8697734],[-4.2174005,55.8707485],[-4.2174139,55.8713791],[-4.217481,55.8719028],[-4.2175295,55.8721716]]}},{"type":"Feature","properties":{"name":"315(3) T","type":"Tracks","notes":"","colour":"#7cb342","section":"Sunnyside","equipment_number":"000001603224"},"geometry":{"type":"LineString","coordinates":[[-4.2127955,55.8584984],[-4.2125474,55.8586768],[-4.2122416,55.8589161],[-4.2119787,55.8591464],[-4.2117266,55.8593873],[-4.2115402,55.859592],[-4.211398,55.8597681],[-4.2112451,55.8599638],[-4.2110936,55.8601926],[-4.2109581,55.860435],[-4.2108643,55.8606254],[-4.2107261,55.8609716],[-4.2106336,55.8612915],[-4.210584,55.861582],[-4.2105464,55.8620238],[-4.2105357,55.8624347],[-4.2105558,55.8631813],[-4.210592,55.8635064],[-4.2106229,55.8637344],[-4.2106765,55.8639512],[-4.210753,55.8641551],[-4.2108374,55.8643402],[-4.2110426,55.8646781],[-4.2111335,55.864788]]}},{"type":"Feature","properties":{"name":"317 T","type":"Tracks","notes":"","colour":"#a52714","section":"Sunnyside","equipment_number":"000000482681"},"geometry":{"type":"LineString","coordinates":[[-4.2149264,55.8574247],[-4.2147333,55.857497],[-4.2141097,55.8577664],[-4.2139447,55.8578387],[-4.2133842,55.8581284],[-4.2127955,55.8584984]]}},{"type":"Feature","properties":{"name":"319 T","type":"Tracks","notes":"","colour":"#7cb342","section":"Sunnyside","equipment_number":"000000482679"},"geometry":{"type":"LineString","coordinates":[[-4.2188821,55.8565491],[-4.2169499,55.856901],[-4.2188821,55.8565491],[-4.2173873,55.8567855],[-4.2166994,55.8569225],[-4.2162729,55.8570234],[-4.2156694,55.8571822],[-4.2149264,55.8574247]]}},{"type":"Feature","properties":{"name":"318 T","type":"Tracks","notes":"","colour":"#ffd600","section":"Sunnyside","equipment_number":"000000482680"},"geometry":{"type":"LineString","coordinates":[[-4.2169499,55.856901],[-4.2162879,55.8570471],[-4.215675,55.8572149],[-4.2149334,55.8574528],[-4.2141261,55.8577908],[-4.2139785,55.85786],[-4.2134139,55.858152],[-4.2129258,55.8584516]]}},{"type":"Feature","properties":{"name":"316 T","type":"Tracks","notes":"","colour":"#0288d1","section":"Sunnyside","equipment_number":"000000482682"},"geometry":{"type":"LineString","coordinates":[[-4.2129258,55.8584516],[-4.2126501,55.8586504],[-4.2124543,55.8587949],[-4.2122505,55.858962],[-4.2120278,55.8591577],[-4.2118133,55.8593609],[-4.2116335,55.8595611]]}},{"type":"Feature","properties":{"name":"314 T","type":"Tracks","notes":"","colour":"#ffd600","section":"Sunnyside","equipment_number":"000000482614"},"geometry":{"type":"LineString","coordinates":[[-4.2107135,55.8612154],[-4.2108128,55.8608903],[-4.2109442,55.8605712],[-4.2111373,55.8602129],[-4.2113841,55.8598576],[-4.2116335,55.8595611]]}},{"type":"Feature","properties":{"name":"137 T","type":"Tracks","notes":"","colour":"#a52714","section":"Sunnyside","equipment_number":"000000482667"},"geometry":{"type":"LineString","coordinates":[[-4.1577255,55.8535881],[-4.1573562,55.8535699],[-4.1570183,55.8535594],[-4.1573549,55.8535579],[-4.1575748,55.8535376],[-4.1577398,55.8535157],[-4.1575748,55.8535376],[-4.1573549,55.8535579],[-4.1570183,55.8535594],[-4.1568225,55.8535541],[-4.1565341,55.853521],[-4.156223,55.8534743],[-4.1565341,55.853521],[-4.156677,55.8535387],[-4.1568225,55.8535541],[-4.1564094,55.8535473]]}},{"type":"Feature","properties":{"name":"135 T","type":"Tracks","notes":"","colour":"#7cb342","section":"Sunnyside","equipment_number":"000000482688"},"geometry":{"type":"LineString","coordinates":[[-4.1564094,55.8535473],[-4.1544487,55.8535227]]}},{"type":"Feature","properties":{"name":"131 T","type":"Tracks","notes":"","colour":"#a52714","section":"Sunnyside","equipment_number":"000000482691"},"geometry":{"type":"LineString","coordinates":[[-4.1539286,55.8534941],[-4.154457,55.8535249],[-4.1536308,55.8535099],[-4.1495002,55.8534399],[-4.14681,55.8533924],[-4.1453833,55.8533718]]}},{"type":"Feature","properties":{"name":"95 T","type":"Tracks","notes":"","colour":"#ffd600","section":"Sunnyside","equipment_number":"000000758583"},"geometry":{"type":"LineString","coordinates":[[-4.0301007,55.86252],[-4.0302563,55.8627314],[-4.0304146,55.8629941],[-4.0305071,55.8631687],[-4.0306144,55.8634532],[-4.0306922,55.863709],[-4.0307136,55.8639228],[-4.0307002,55.864135],[-4.0306546,55.8643141],[-4.0305044,55.8645911],[-4.030322,55.8647958],[-4.0300753,55.8649914],[-4.0297936,55.865148],[-4.0295227,55.8653075],[-4.0292518,55.8654851],[-4.0290668,55.8656672],[-4.0289514,55.8658147],[-4.0288683,55.866036],[-4.0288307,55.8662888],[-4.0288992,55.8665031]]}}]}